{
  "type": "FeatureCollection",
  "features": [
    {
      "type": "Feature",
      "properties": {
        "name": "Northern podium",
        "height": 14.3
      },
      "geometry": {
        "type": "Polygon",
        "coordinates": [
          [
            [
              144.99592285939156,
              -37.794014158810256
            ],
            [
              144.99562867285962,
              -37.79398537662654
            ],
            [
              144.9956154396165,
              -37.794070549663516
            ],
            [
              144.99590962647827,
              -37.79409933188934
            ],
            [
              144.99592285939156,
              -37.794014158810256
            ]
          ]
        ]
      }
    },
    {
      "type": "Feature",
      "properties": {
        "name": "Stair core north",
        "height": 26.5
      },
      "geometry": {
        "type": "Polygon",
        "coordinates": [
          [
            [
              144.99581683031087,
              -37.794090253114476
            ],
            [
              144.9957097795125,
              -37.79407977963505
            ],
            [
              144.99570568105344,
              -37.794106158689345
            ],
            [
              144.995812731889,
              -37.79411663217351
            ],
            [
              144.99581683031087,
              -37.794090253114476
            ]
          ]
        ]
      }
    },
    {
      "type": "Feature",
      "properties": {
        "name": "Main tower",
        "height": 26.5
      },
      "geometry": {
        "type": "Polygon",
        "coordinates": [
          [
            [
              144.99584036227873,
              -37.794119335419246
            ],
            [
              144.995593965092,
              -37.79409522867886
            ],
            [
              144.9955027094378,
              -37.79468256930275
            ],
            [
              144.99574910852974,
              -37.79470667628642
            ],
            [
              144.99584036227873,
              -37.794119335419246
            ]
          ]
        ]
      }
    },
    {
      "type": "Feature",
      "properties": {
        "name": "Street-facing north",
        "height": 9.6
      },
      "geometry": {
        "type": "Polygon",
        "coordinates": [
          [
            [
              144.99590558443123,
              -37.7941257164648
            ],
            [
              144.99584036227873,
              -37.794119335419246
            ],
            [
              144.9958183627783,
              -37.794260932843756
            ],
            [
              144.99588358505238,
              -37.79426731390484
            ],
            [
              144.99590558443123,
              -37.7941257164648
            ]
          ]
        ]
      }
    },
    {
      "type": "Feature",
      "properties": {
        "name": "Street-facing south",
        "height": 6.45
      },
      "geometry": {
        "type": "Polygon",
        "coordinates": [
          [
            [
              144.99590848851565,
              -37.794269750340625
            ],
            [
              144.9958183627783,
              -37.794260932843756
            ],
            [
              144.99574910852974,
              -37.79470667628642
            ],
            [
              144.99583923479597,
              -37.79471549385082
            ],
            [
              144.99590848851565,
              -37.794269750340625
            ]
          ]
        ]
      }
    },
    {
      "type": "Feature",
      "properties": {
        "name": "Roof south stairwell",
        "height": 28.65
      },
      "geometry": {
        "type": "Polygon",
        "coordinates": [
          [
            [
              144.99577648103306,
              -37.79442704737138
            ],
            [
              144.9957134898048,
              -37.79442088453799
            ],
            [
              144.99570839101477,
              -37.79445370186764
            ],
            [
              144.99577138227025,
              -37.794459864704514
            ],
            [
              144.99577648103306,
              -37.79442704737138
            ]
          ]
        ]
      }
    },
    {
      "type": "Feature",
      "properties": {
        "name": "Roof HW heat pump",
        "height": 28.65
      },
      "geometry": {
        "type": "Polygon",
        "coordinates": [
          [
            [
              144.9957102123259,
              -37.79445987152392
            ],
            [
              144.99562389516137,
              -37.79445142651008
            ],
            [
              144.99561672622957,
              -37.79449756748923
            ],
            [
              144.99570304344653,
              -37.794506012509764
            ],
            [
              144.9957102123259,
              -37.79445987152392
            ]
          ]
        ]
      }
    },
    {
      "type": "Feature",
      "properties": {
        "name": "Roof north stairwell",
        "height": 27.5
      },
      "geometry": {
        "type": "Polygon",
        "coordinates": [
          [
            [
              144.99580865794726,
              -37.79426007414227
            ],
            [
              144.99575231528976,
              -37.794254561789316
            ],
            [
              144.9957439655496,
              -37.79430830352513
            ],
            [
              144.99580030824694,
              -37.79431381588317
            ],
            [
              144.99580865794726,
              -37.79426007414227
            ]
          ]
        ]
      }
    },
    {
      "type": "Feature",
      "properties": {
        "name": "Car park west",
        "height": 0.11
      },
      "geometry": {
        "type": "Polygon",
        "coordinates": [
          [
            [
              144.9955941665437,
              -37.79409393208153
            ],
            [
              144.99555245054745,
              -37.794089850664825
            ],
            [
              144.99547286233792,
              -37.79460209593243
            ],
            [
              144.99551457861543,
              -37.794606177385056
            ],
            [
              144.9955941665437,
              -37.79409393208153
            ]
          ]
        ]
      }
    },
    {
      "type": "Feature",
      "properties": {
        "name": "Lot boundary N",
        "height": 0.1
      },
      "geometry": {
        "type": "Polygon",
        "coordinates": [
          [
            [
              144.9959796796519,
              -37.79399929237374
            ],
            [
              144.99552330586698,
              -37.79395464224979
            ],
            [
              144.9955228890689,
              -37.7939573248647
            ],
            [
              144.9959792628699,
              -37.79400197499073
            ],
            [
              144.9959796796519,
              -37.79399929237374
            ]
          ]
        ]
      }
    },
    {
      "type": "Feature",
      "properties": {
        "name": "Lot boundary S",
        "height": 0.1
      },
      "geometry": {
        "type": "Polygon",
        "coordinates": [
          [
            [
              144.99586770298583,
              -37.794720022012186
            ],
            [
              144.99541132487064,
              -37.794675371335266
            ],
            [
              144.9954109080633,
              -37.79467805394925
            ],
            [
              144.99586728619462,
              -37.79472270462822
            ],
            [
              144.99586770298583,
              -37.794720022012186
            ]
          ]
        ]
      }
    },
    {
      "type": "Feature",
      "properties": {
        "name": "Lot boundary E",
        "height": 0.1
      },
      "geometry": {
        "type": "Polygon",
        "coordinates": [
          [
            [
              144.9959792628699,
              -37.79400197499074
            ],
            [
              144.99597588232092,
              -37.7940016442555
            ],
            [
              144.9958643224049,
              -37.79471969127288
            ],
            [
              144.99586770298583,
              -37.794720022012186
            ],
            [
              144.9959792628699,
              -37.79400197499074
            ]
          ]
        ]
      }
    },
    {
      "type": "Feature",
      "properties": {
        "name": "Lot boundary W",
        "height": 0.1
      },
      "geometry": {
        "type": "Polygon",
        "coordinates": [
          [
            [
              144.99552626961326,
              -37.793957655612836
            ],
            [
              144.9955228890689,
              -37.793957324864714
            ],
            [
              144.99541132487064,
              -37.794675371335266
            ],
            [
              144.99541470544696,
              -37.79467570208746
            ],
            [
              144.99552626961326,
              -37.793957655612836
            ]
          ]
        ]
      }
    }
  ]
}