{
  "type": "FeatureCollection",
  "features": [
    {
      "type": "Feature",
      "properties": {
        "name": "Northern podium",
        "height": 14.3
      },
      "geometry": {
        "type": "Polygon",
        "coordinates": [
          [
            [
              144.99592285939156,
              -37.794014158810256
            ],
            [
              144.99562867285962,
              -37.79398537662654
            ],
            [
              144.9956154396165,
              -37.794070549663516
            ],
            [
              144.99590962647827,
              -37.79409933188934
            ],
            [
              144.99592285939156,
              -37.794014158810256
            ]
          ]
        ]
      }
    },
    {
      "type": "Feature",
      "properties": {
        "name": "Stair core north",
        "height": 26.5
      },
      "geometry": {
        "type": "Polygon",
        "coordinates": [
          [
            [
              144.99582350126704,
              -37.79409090577442
            ],
            [
              144.99571532361614,
              -37.79408032205342
            ],
            [
              144.99571122515903,
              -37.79410670110796
            ],
            [
              144.9958194028475,
              -37.79411728483376
            ],
            [
              144.99582350126704,
              -37.79409090577442
            ]
          ]
        ]
      }
    },
    {
      "type": "Feature",
      "properties": {
        "name": "Podium-street infill",
        "height": 6.45
      },
      "geometry": {
        "type": "Polygon",
        "coordinates": [
          [
            [
              144.99590968282084,
              -37.79409933740163
            ],
            [
              144.99582350126704,
              -37.79409090577442
            ],
            [
              144.9958194028475,
              -37.79411728483376
            ],
            [
              144.99590558443123,
              -37.7941257164648
            ],
            [
              144.99590968282084,
              -37.79409933740163
            ]
          ]
        ]
      }
    },
    {
      "type": "Feature",
      "properties": {
        "name": "Street-facing north",
        "height": 9.675
      },
      "geometry": {
        "type": "Polygon",
        "coordinates": [
          [
            [
              144.99590558443123,
              -37.7941257164648
            ],
            [
              144.99584036227873,
              -37.794119335419246
            ],
            [
              144.9958183627783,
              -37.794260932843756
            ],
            [
              144.99588358505238,
              -37.79426731390484
            ],
            [
              144.99590558443123,
              -37.7941257164648
            ]
          ]
        ]
      }
    },
    {
      "type": "Feature",
      "properties": {
        "name": "Street-facing shaft infill",
        "height": 6.45
      },
      "geometry": {
        "type": "Polygon",
        "coordinates": [
          [
            [
              144.9958514922663,
              -37.79426417409211
            ],
            [
              144.9957912619581,
              -37.79425828140753
            ],
            [
              144.99578289835242,
              -37.79431211256739
            ],
            [
              144.9958431287033,
              -37.79431800525742
            ],
            [
              144.9958514922663,
              -37.79426417409211
            ]
          ]
        ]
      }
    },
    {
      "type": "Feature",
      "properties": {
        "name": "Street-facing south",
        "height": 6.45
      },
      "geometry": {
        "type": "Polygon",
        "coordinates": [
          [
            [
              144.99590012499306,
              -37.79432358151109
            ],
            [
              144.99580999919183,
              -37.794314764006074
            ],
            [
              144.99574839719887,
              -37.7947112546169
            ],
            [
              144.99583852347055,
              -37.79472007218198
            ],
            [
              144.99590012499306,
              -37.79432358151109
            ]
          ]
        ]
      }
    },
    {
      "type": "Feature",
      "properties": {
        "name": "Street-facing south shaft infill",
        "height": 6.45
      },
      "geometry": {
        "type": "Polygon",
        "coordinates": [
          [
            [
              144.99579231335616,
              -37.79442859634303
            ],
            [
              144.99576521247616,
              -37.794425944899174
            ],
            [
              144.99576011370846,
              -37.794458762231685
            ],
            [
              144.9957872146002,
              -37.79446141367703
            ],
            [
              144.99579231335616,
              -37.79442859634303
            ]
          ]
        ]
      }
    },
    {
      "type": "Feature",
      "properties": {
        "name": "Roof south stairwell",
        "height": 28.65
      },
      "geometry": {
        "type": "Polygon",
        "coordinates": [
          [
            [
              144.99577648103306,
              -37.79442704737138
            ],
            [
              144.9957134898048,
              -37.79442088453799
            ],
            [
              144.99570839101477,
              -37.79445370186764
            ],
            [
              144.99577138227025,
              -37.794459864704514
            ],
            [
              144.99577648103306,
              -37.79442704737138
            ]
          ]
        ]
      }
    },
    {
      "type": "Feature",
      "properties": {
        "name": "Roof HW heat pump",
        "height": 28.4
      },
      "geometry": {
        "type": "Polygon",
        "coordinates": [
          [
            [
              144.9957102123259,
              -37.79445987152392
            ],
            [
              144.99562389516137,
              -37.79445142651008
            ],
            [
              144.99561672622957,
              -37.79449756748923
            ],
            [
              144.99570304344653,
              -37.794506012509764
            ],
            [
              144.9957102123259,
              -37.79445987152392
            ]
          ]
        ]
      }
    },
    {
      "type": "Feature",
      "properties": {
        "name": "Roof north stairwell",
        "height": 27.5
      },
      "geometry": {
        "type": "Polygon",
        "coordinates": [
          [
            [
              144.99580865794726,
              -37.79426007414227
            ],
            [
              144.99575231528976,
              -37.794254561789316
            ],
            [
              144.9957439655496,
              -37.79430830352513
            ],
            [
              144.99580030824694,
              -37.79431381588317
            ],
            [
              144.99580865794726,
              -37.79426007414227
            ]
          ]
        ]
      }
    },
    {
      "type": "Feature",
      "properties": {
        "name": "Main tower",
        "height": 26.5
      },
      "geometry": {
        "type": "Polygon",
        "coordinates": [
          [
            [
              144.99584036227873,
              -37.794119335419246
            ],
            [
              144.9958183488853,
              -37.79426102226429
            ],
            [
              144.99579124806505,
              -37.79425837082807
            ],
            [
              144.99578289835242,
              -37.79431211256739
            ],
            [
              144.99580999919183,
              -37.794314764006074
            ],
            [
              144.99579231335616,
              -37.79442859634303
            ],
            [
              144.99576521247616,
              -37.794425944899174
            ],
            [
              144.99576011370846,
              -37.794458762231685
            ],
            [
              144.9957872146002,
              -37.79446141367703
            ],
            [
              144.99575676088756,
              -37.794657423464905
            ],
            [
              144.99564257626864,
              -37.7946462520358
            ],
            [
              144.9956489644009,
              -37.79460513648844
            ],
            [
              144.99563093467083,
              -37.79460337251177
            ],
            [
              144.99562454652877,
              -37.79464448805787
            ],
            [
              144.99551036195538,
              -37.79463331650164
            ],
            [
              144.9955636013712,
              -37.79429065718475
            ],
            [
              144.9956808617399,
              -37.79430212965236
            ],
            [
              144.99568496022172,
              -37.79427575060032
            ],
            [
              144.99556769989374,
              -37.79426427813791
            ],
            [
              144.995593965092,
              -37.79409522867886
            ],
            [
              144.99584036227873,
              -37.794119335419246
            ]
          ]
        ]
      }
    }
  ]
}