{
  "type": "FeatureCollection",
  "features": [
    {
      "type": "Feature",
      "properties": {
        "name": "Northern podium",
        "height": 14.3
      },
      "geometry": {
        "type": "Polygon",
        "coordinates": [
          [
            [
              323547.31910065503,
              5815147.547942965
            ],
            [
              323521.3457499896,
              5815150.186219716
            ],
            [
              323520.383188759,
              5815140.709980965
            ],
            [
              323546.3565394244,
              5815138.0717042135
            ],
            [
              323547.31910065503,
              5815147.547942965
            ]
          ]
        ]
      }
    },
    {
      "type": "Feature",
      "properties": {
        "name": "Stair core north",
        "height": 26.5
      },
      "geometry": {
        "type": "Polygon",
        "coordinates": [
          [
            [
              323538.75266616675,
              5815138.844077493
            ],
            [
              323529.20181136206,
              5815139.814217946
            ],
            [
              323528.9036952853,
              5815136.879319854
            ],
            [
              323538.45455009,
              5815135.909179402
            ],
            [
              323538.75266616675,
              5815138.844077493
            ]
          ]
        ]
      }
    },
    {
      "type": "Feature",
      "properties": {
        "name": "Podium-street infill",
        "height": 6.45
      },
      "geometry": {
        "type": "Polygon",
        "coordinates": [
          [
            [
              323546.3615138279,
              5815138.071198932
            ],
            [
              323538.75266616675,
              5815138.844077493
            ],
            [
              323538.45455009,
              5815135.909179402
            ],
            [
              323546.0633977512,
              5815135.13630084
            ],
            [
              323546.3615138279,
              5815138.071198932
            ]
          ]
        ]
      }
    },
    {
      "type": "Feature",
      "properties": {
        "name": "Street-facing north",
        "height": 9.675
      },
      "geometry": {
        "type": "Polygon",
        "coordinates": [
          [
            [
              323546.0633977512,
              5815135.13630084
            ],
            [
              323540.30502820853,
              5815135.721214688
            ],
            [
              323538.7048017427,
              5815119.967278664
            ],
            [
              323544.46317128534,
              5815119.382364816
            ],
            [
              323546.0633977512,
              5815135.13630084
            ]
          ]
        ]
      }
    },
    {
      "type": "Feature",
      "properties": {
        "name": "Street-facing shaft infill",
        "height": 6.45
      },
      "geometry": {
        "type": "Polygon",
        "coordinates": [
          [
            [
              323541.62975102663,
              5815119.6701731505
            ],
            [
              323536.31211363804,
              5815120.210319059
            ],
            [
              323535.7037547289,
              5815114.221137192
            ],
            [
              323541.0213921176,
              5815113.680991284
            ],
            [
              323541.62975102663,
              5815119.6701731505
            ]
          ]
        ]
      }
    },
    {
      "type": "Feature",
      "properties": {
        "name": "Street-facing south",
        "height": 6.45
      },
      "geometry": {
        "type": "Polygon",
        "coordinates": [
          [
            [
              323546.05349874287,
              5815113.169848532
            ],
            [
              323538.09644283354,
              5815113.978096797
            ],
            [
              323533.6156066165,
              5815069.865086168
            ],
            [
              323541.5726625258,
              5815069.056837903
            ],
            [
              323546.05349874287,
              5815113.169848532
            ]
          ]
        ]
      }
    },
    {
      "type": "Feature",
      "properties": {
        "name": "Street-facing south shaft infill",
        "height": 6.45
      },
      "geometry": {
        "type": "Polygon",
        "coordinates": [
          [
            [
              323536.80999617046,
              5815101.313265374
            ],
            [
              323534.4173080657,
              5815101.556305769
            ],
            [
              323534.04643145506,
              5815097.905093567
            ],
            [
              323536.4391195597,
              5815097.6620531725
            ],
            [
              323536.80999617046,
              5815101.313265374
            ]
          ]
        ]
      }
    },
    {
      "type": "Feature",
      "properties": {
        "name": "Roof south stairwell",
        "height": 28.65
      },
      "geometry": {
        "type": "Polygon",
        "coordinates": [
          [
            [
              323535.41218877456,
              5815101.455249472
            ],
            [
              323529.85080561216,
              5815102.0201541735
            ],
            [
              323529.47992900154,
              5815098.368941972
            ],
            [
              323535.0413121639,
              5815097.80403727
            ],
            [
              323535.41218877456,
              5815101.455249472
            ]
          ]
        ]
      }
    },
    {
      "type": "Feature",
      "properties": {
        "name": "Roof HW heat pump",
        "height": 28.4
      },
      "geometry": {
        "type": "Polygon",
        "coordinates": [
          [
            [
              323529.6549878577,
              5815097.687764023
            ],
            [
              323522.03420162806,
              5815098.46185526
            ],
            [
              323521.5127511346,
              5815093.328270802
            ],
            [
              323529.1335373642,
              5815092.554179566
            ],
            [
              323529.6549878577,
              5815097.687764023
            ]
          ]
        ]
      }
    },
    {
      "type": "Feature",
      "properties": {
        "name": "Roof north stairwell",
        "height": 27.5
      },
      "geometry": {
        "type": "Polygon",
        "coordinates": [
          [
            [
              323537.84819377004,
              5815120.044238273
            ],
            [
              323532.87379022595,
              5815120.549519759
            ],
            [
              323532.2664418799,
              5815114.570286699
            ],
            [
              323537.2408454241,
              5815114.065005213
            ],
            [
              323537.84819377004,
              5815120.044238273
            ]
          ]
        ]
      }
    },
    {
      "type": "Feature",
      "properties": {
        "name": "Main tower",
        "height": 26.5
      },
      "geometry": {
        "type": "Polygon",
        "coordinates": [
          [
            [
              323540.30502820853,
              5815135.721214688
            ],
            [
              323538.7037911797,
              5815119.957329857
            ],
            [
              323536.31110307504,
              5815120.200370252
            ],
            [
              323535.7037547289,
              5815114.221137192
            ],
            [
              323538.09644283354,
              5815113.978096797
            ],
            [
              323536.80999617046,
              5815101.313265374
            ],
            [
              323534.4173080658,
              5815101.556305769
            ],
            [
              323534.04643145506,
              5815097.905093567
            ],
            [
              323536.4391195597,
              5815097.6620531725
            ],
            [
              323534.2239655254,
              5815075.854268035
            ],
            [
              323524.142839303,
              5815076.878271495
            ],
            [
              323524.6074961575,
              5815081.452732994
            ],
            [
              323523.0156870233,
              5815081.614423069
            ],
            [
              323522.5510301688,
              5815077.03996157
            ],
            [
              323512.4699039463,
              5815078.063965029
            ],
            [
              323516.3423812544,
              5815116.187793791
            ],
            [
              323526.69510991056,
              5815115.136201963
            ],
            [
              323526.99322598707,
              5815118.071100053
            ],
            [
              323516.64049733104,
              5815119.122691882
            ],
            [
              323518.5509666293,
              5815137.930911683
            ],
            [
              323540.30502820853,
              5815135.721214688
            ]
          ]
        ]
      }
    }
  ]
}