{
  "type": "FeatureCollection",
  "features": [
    {
      "type": "Feature",
      "properties": {
        "name": "Northern podium",
        "height": 14.3
      },
      "geometry": {
        "type": "Polygon",
        "coordinates": [
          [
            [
              144.99592285939156,
              -37.794014158810256
            ],
            [
              144.99562867285962,
              -37.79398537662654
            ],
            [
              144.9956154396165,
              -37.794070549663516
            ],
            [
              144.99590962647827,
              -37.79409933188934
            ],
            [
              144.99592285939156,
              -37.794014158810256
            ]
          ]
        ]
      }
    },
    {
      "type": "Feature",
      "properties": {
        "name": "Stair core north",
        "height": 19.6
      },
      "geometry": {
        "type": "Polygon",
        "coordinates": [
          [
            [
              144.9957323841308,
              -37.794081991200954
            ],
            [
              144.99562420650966,
              -37.79407140739696
            ],
            [
              144.99562010802092,
              -37.79409778644746
            ],
            [
              144.99572828567963,
              -37.79410837025626
            ],
            [
              144.9957323841308,
              -37.794081991200954
            ]
          ]
        ]
      }
    },
    {
      "type": "Feature",
      "properties": {
        "name": "Roof south stairwell",
        "height": 21.75
      },
      "geometry": {
        "type": "Polygon",
        "coordinates": [
          [
            [
              144.9958271670068,
              -37.79443200627817
            ],
            [
              144.99576417576893,
              -37.79442584347168
            ],
            [
              144.99575907700077,
              -37.79445866080412
            ],
            [
              144.99582206826588,
              -37.79446482361409
            ],
            [
              144.9958271670068,
              -37.79443200627817
            ]
          ]
        ]
      }
    },
    {
      "type": "Feature",
      "properties": {
        "name": "Roof HW heat pump",
        "height": 21.5
      },
      "geometry": {
        "type": "Polygon",
        "coordinates": [
          [
            [
              144.99561909475577,
              -37.79445095685081
            ],
            [
              144.99553277761498,
              -37.79444251177075
            ],
            [
              144.99552560862782,
              -37.79448865274283
            ],
            [
              144.99561192582104,
              -37.79449709782959
            ],
            [
              144.99561909475577,
              -37.79445095685081
            ]
          ]
        ]
      }
    },
    {
      "type": "Feature",
      "properties": {
        "name": "Roof north stairwell",
        "height": 20.6
      },
      "geometry": {
        "type": "Polygon",
        "coordinates": [
          [
            [
              144.9958593438101,
              -37.79426503303216
            ],
            [
              144.99580300114403,
              -37.794259520703235
            ],
            [
              144.9957946514397,
              -37.794313262443644
            ],
            [
              144.99585099414566,
              -37.79431877477764
            ],
            [
              144.9958593438101,
              -37.79426503303216
            ]
          ]
        ]
      }
    },
    {
      "type": "Feature",
      "properties": {
        "name": "Main tower",
        "height": 19.6
      },
      "geometry": {
        "type": "Polygon",
        "coordinates": [
          [
            [
              144.99589104804852,
              -37.79412429429293
            ],
            [
              144.99586903474963,
              -37.79426598115004
            ],
            [
              144.99584193392525,
              -37.79426332972538
            ],
            [
              144.9958335842485,
              -37.79431707146929
            ],
            [
              144.99586068509205,
              -37.794319722896404
            ],
            [
              144.99584299933233,
              -37.79443355524306
            ],
            [
              144.99581589844814,
              -37.79443090381076
            ],
            [
              144.99581079970238,
              -37.79446372114606
            ],
            [
              144.99583790059825,
              -37.794466372579855
            ],
            [
              144.99579979469146,
              -37.79471163521014
            ],
            [
              144.99561470797792,
              -37.794693526985746
            ],
            [
              144.99562109613086,
              -37.79465241144078
            ],
            [
              144.9956030663902,
              -37.79465064745955
            ],
            [
              144.99559667822749,
              -37.79469176300327
            ],
            [
              144.99541159162735,
              -37.79467365446231
            ],
            [
              144.9954724840309,
              -37.79428174240433
            ],
            [
              144.99558974436738,
              -37.794293214961925
            ],
            [
              144.99559384288082,
              -37.79426683591392
            ],
            [
              144.99547658258507,
              -37.794255363361536
            ],
            [
              144.99550284798613,
              -37.7940863139284
            ],
            [
              144.99589104804852,
              -37.79412429429293
            ]
          ]
        ]
      }
    }
  ]
}