{
  "type": "FeatureCollection",
  "features": [
    {
      "type": "Feature",
      "properties": {
        "name": "Northern podium",
        "height": 14.3
      },
      "geometry": {
        "type": "Polygon",
        "coordinates": [
          [
            [
              323547.31910065503,
              5815147.547942965
            ],
            [
              323521.3457499896,
              5815150.186219716
            ],
            [
              323520.383188759,
              5815140.709980965
            ],
            [
              323546.3565394244,
              5815138.0717042135
            ],
            [
              323547.31910065503,
              5815147.547942965
            ]
          ]
        ]
      }
    },
    {
      "type": "Feature",
      "properties": {
        "name": "Stair core north",
        "height": 20.1
      },
      "geometry": {
        "type": "Polygon",
        "coordinates": [
          [
            [
              323538.75266616675,
              5815138.844077493
            ],
            [
              323529.20181136206,
              5815139.814217946
            ],
            [
              323528.9036952853,
              5815136.879319854
            ],
            [
              323538.45455009,
              5815135.909179402
            ],
            [
              323538.75266616675,
              5815138.844077493
            ]
          ]
        ]
      }
    },
    {
      "type": "Feature",
      "properties": {
        "name": "Roof south stairwell",
        "height": 22.25
      },
      "geometry": {
        "type": "Polygon",
        "coordinates": [
          [
            [
              323541.92666765605,
              5815100.793532838
            ],
            [
              323536.36528449366,
              5815101.358437539
            ],
            [
              323535.9944078829,
              5815097.707225338
            ],
            [
              323541.5557910453,
              5815097.142320637
            ],
            [
              323541.92666765605,
              5815100.793532838
            ]
          ]
        ]
      }
    },
    {
      "type": "Feature",
      "properties": {
        "name": "Roof HW heat pump",
        "height": 22.0
      },
      "geometry": {
        "type": "Polygon",
        "coordinates": [
          [
            [
              323529.6549878577,
              5815097.687764023
            ],
            [
              323522.03420162806,
              5815098.46185526
            ],
            [
              323521.5127511346,
              5815093.328270802
            ],
            [
              323529.1335373642,
              5815092.554179566
            ],
            [
              323529.6549878577,
              5815097.687764023
            ]
          ]
        ]
      }
    },
    {
      "type": "Feature",
      "properties": {
        "name": "Roof north stairwell",
        "height": 21.1
      },
      "geometry": {
        "type": "Polygon",
        "coordinates": [
          [
            [
              323544.3626726514,
              5815119.38252164
            ],
            [
              323539.3882691073,
              5815119.887803125
            ],
            [
              323538.7809207614,
              5815113.908570065
            ],
            [
              323543.7553243055,
              5815113.40328858
            ],
            [
              323544.3626726514,
              5815119.38252164
            ]
          ]
        ]
      }
    },
    {
      "type": "Feature",
      "properties": {
        "name": "Main tower",
        "height": 20.1
      },
      "geometry": {
        "type": "Polygon",
        "coordinates": [
          [
            [
              323546.8195070899,
              5815135.059498055
            ],
            [
              323545.2182700611,
              5815119.295613224
            ],
            [
              323542.8255819564,
              5815119.538653619
            ],
            [
              323542.21823361027,
              5815113.559420559
            ],
            [
              323544.61092171504,
              5815113.316380164
            ],
            [
              323543.32447505184,
              5815100.65154874
            ],
            [
              323540.9317869472,
              5815100.894589135
            ],
            [
              323540.56091033644,
              5815097.243376934
            ],
            [
              323542.9535984412,
              5815097.000336539
            ],
            [
              323540.181826322,
              5815069.712748457
            ],
            [
              323526.8434606588,
              5815071.067610233
            ],
            [
              323527.3081175133,
              5815075.642071732
            ],
            [
              323525.7163083791,
              5815075.803761807
            ],
            [
              323525.25165152457,
              5815071.229300308
            ],
            [
              323511.9132858614,
              5815072.584162084
            ],
            [
              323516.3423812544,
              5815116.187793791
            ],
            [
              323526.69510991056,
              5815115.136201963
            ],
            [
              323526.99322598707,
              5815118.071100053
            ],
            [
              323516.64049733104,
              5815119.122691882
            ],
            [
              323518.5509666293,
              5815137.930911683
            ],
            [
              323546.8195070899,
              5815135.059498055
            ]
          ]
        ]
      }
    }
  ]
}