{
  "type": "FeatureCollection",
  "features": [
    {
      "type": "Feature",
      "properties": {
        "name": "Northern podium",
        "height": 14.3
      },
      "geometry": {
        "type": "Polygon",
        "coordinates": [
          [
            [
              144.99592285939156,
              -37.794014158810256
            ],
            [
              144.99562867285962,
              -37.79398537662654
            ],
            [
              144.9956154396165,
              -37.794070549663516
            ],
            [
              144.99590962647827,
              -37.79409933188934
            ],
            [
              144.99592285939156,
              -37.794014158810256
            ]
          ]
        ]
      }
    },
    {
      "type": "Feature",
      "properties": {
        "name": "Stair core north",
        "height": 20.1
      },
      "geometry": {
        "type": "Polygon",
        "coordinates": [
          [
            [
              144.9957741001354,
              -37.794086072554045
            ],
            [
              144.99566592250065,
              -37.794075488788046
            ],
            [
              144.99566182402637,
              -37.794101867840396
            ],
            [
              144.99577000169873,
              -37.7941124516112
            ],
            [
              144.9957741001354,
              -37.794086072554045
            ]
          ]
        ]
      }
    },
    {
      "type": "Feature",
      "properties": {
        "name": "Podium-street infill",
        "height": 6.45
      },
      "geometry": {
        "type": "Polygon",
        "coordinates": [
          [
            [
              144.99586028167636,
              -37.794094504217114
            ],
            [
              144.9957741001354,
              -37.794086072554045
            ],
            [
              144.99577000169873,
              -37.7941124516112
            ],
            [
              144.9958561832696,
              -37.79412088327809
            ],
            [
              144.99586028167636,
              -37.794094504217114
            ]
          ]
        ]
      }
    },
    {
      "type": "Feature",
      "properties": {
        "name": "Street-facing north",
        "height": 9.675
      },
      "geometry": {
        "type": "Polygon",
        "coordinates": [
          [
            [
              144.9958561832696,
              -37.79412088327809
            ],
            [
              144.9957909611268,
              -37.794114502205396
            ],
            [
              144.9957689615343,
              -37.79425609961817
            ],
            [
              144.99583418379868,
              -37.794262480706365
            ],
            [
              144.9958561832696,
              -37.79412088327809
            ]
          ]
        ]
      }
    },
    {
      "type": "Feature",
      "properties": {
        "name": "Street-facing south",
        "height": 6.45
      },
      "geometry": {
        "type": "Polygon",
        "coordinates": [
          [
            [
              144.99585908725822,
              -37.79426491715251
            ],
            [
              144.9957689615343,
              -37.79425609961817
            ],
            [
              144.99569970699585,
              -37.794701843023795
            ],
            [
              144.99578983324866,
              -37.79471066062568
            ],
            [
              144.99585908725822,
              -37.79426491715251
            ]
          ]
        ]
      }
    },
    {
      "type": "Feature",
      "properties": {
        "name": "Roof south stairwell",
        "height": 22.25
      },
      "geometry": {
        "type": "Polygon",
        "coordinates": [
          [
            [
              144.9957270796824,
              -37.79442221412526
            ],
            [
              144.99566408846354,
              -37.794416051265685
            ],
            [
              144.99565898965216,
              -37.7944488685926
            ],
            [
              144.99572198089822,
              -37.79445503145566
            ],
            [
              144.9957270796824,
              -37.79442221412526
            ]
          ]
        ]
      }
    },
    {
      "type": "Feature",
      "properties": {
        "name": "Roof HW heat pump",
        "height": 22.0
      },
      "geometry": {
        "type": "Polygon",
        "coordinates": [
          [
            [
              144.995660810959,
              -37.794455038249524
            ],
            [
              144.99557449380737,
              -37.79444659319977
            ],
            [
              144.99556732484555,
              -37.7944927341751
            ],
            [
              144.9956536420496,
              -37.79450117923154
            ],
            [
              144.995660810959,
              -37.794455038249524
            ]
          ]
        ]
      }
    },
    {
      "type": "Feature",
      "properties": {
        "name": "Roof north stairwell",
        "height": 21.1
      },
      "geometry": {
        "type": "Polygon",
        "coordinates": [
          [
            [
              144.99575925670464,
              -37.79425524091264
            ],
            [
              144.99570291405556,
              -37.79424972853623
            ],
            [
              144.99569456428043,
              -37.79430347026757
            ],
            [
              144.9957509069694,
              -37.79430898264907
            ],
            [
              144.99575925670464,
              -37.79425524091264
            ]
          ]
        ]
      }
    },
    {
      "type": "Feature",
      "properties": {
        "name": "Main tower",
        "height": 20.1
      },
      "geometry": {
        "type": "Polygon",
        "coordinates": [
          [
            [
              144.9957909611268,
              -37.794114502205396
            ],
            [
              144.99576894764124,
              -37.79425618903868
            ],
            [
              144.99574184682507,
              -37.794253537591175
            ],
            [
              144.99573349707748,
              -37.794307279326055
            ],
            [
              144.99576059791283,
              -37.794309930775995
            ],
            [
              144.99574291200312,
              -37.7944237631035
            ],
            [
              144.99571581112716,
              -37.79442111164837
            ],
            [
              144.9957107123381,
              -37.79445392897815
            ],
            [
              144.99573781322582,
              -37.794456580434776
            ],
            [
              144.99569970699585,
              -37.794701843023795
            ],
            [
              144.99558552231989,
              -37.79469067153773
            ],
            [
              144.99559191048863,
              -37.79464955599479
            ],
            [
              144.99557388074956,
              -37.794647792009116
            ],
            [
              144.99556749257104,
              -37.79468890755083
            ],
            [
              144.9954533079406,
              -37.794677735937626
            ],
            [
              144.99551420012892,
              -37.79428582385218
            ],
            [
              144.99563146048015,
              -37.79429729636856
            ],
            [
              144.99563555897913,
              -37.79427091731871
            ],
            [
              144.99551829866863,
              -37.79425944480752
            ],
            [
              144.99554456397684,
              -37.794090395362524
            ],
            [
              144.9957909611268,
              -37.794114502205396
            ]
          ]
        ]
      }
    }
  ]
}