{
  "type": "FeatureCollection",
  "features": [
    {
      "type": "Feature",
      "properties": {
        "name": "Northern podium",
        "height": 14.3
      },
      "geometry": {
        "type": "Polygon",
        "coordinates": [
          [
            [
              323547.31910065503,
              5815147.547942965
            ],
            [
              323521.3457499896,
              5815150.186219716
            ],
            [
              323520.383188759,
              5815140.709980965
            ],
            [
              323546.3565394244,
              5815138.0717042135
            ],
            [
              323547.31910065503,
              5815147.547942965
            ]
          ]
        ]
      }
    },
    {
      "type": "Feature",
      "properties": {
        "name": "Stair core north",
        "height": 20.1
      },
      "geometry": {
        "type": "Polygon",
        "coordinates": [
          [
            [
              323534.3911091393,
              5815139.2871083
            ],
            [
              323524.8402543345,
              5815140.257248753
            ],
            [
              323524.54213825776,
              5815137.322350661
            ],
            [
              323534.0929930626,
              5815136.352210209
            ],
            [
              323534.3911091393,
              5815139.2871083
            ]
          ]
        ]
      }
    },
    {
      "type": "Feature",
      "properties": {
        "name": "Roof south stairwell",
        "height": 22.25
      },
      "geometry": {
        "type": "Polygon",
        "coordinates": [
          [
            [
              323531.050631747,
              5815101.898280279
            ],
            [
              323525.4892485847,
              5815102.46318498
            ],
            [
              323525.118371974,
              5815098.811972778
            ],
            [
              323530.67975513637,
              5815098.247068077
            ],
            [
              323531.050631747,
              5815101.898280279
            ]
          ]
        ]
      }
    },
    {
      "type": "Feature",
      "properties": {
        "name": "Roof HW heat pump",
        "height": 22.0
      },
      "geometry": {
        "type": "Polygon",
        "coordinates": [
          [
            [
              323525.2934308301,
              5815098.130794831
            ],
            [
              323517.6726446005,
              5815098.904886067
            ],
            [
              323517.151194107,
              5815093.771301609
            ],
            [
              323524.77198033663,
              5815092.997210373
            ],
            [
              323525.2934308301,
              5815098.130794831
            ]
          ]
        ]
      }
    },
    {
      "type": "Feature",
      "properties": {
        "name": "Roof north stairwell",
        "height": 21.1
      },
      "geometry": {
        "type": "Polygon",
        "coordinates": [
          [
            [
              323533.4866367425,
              5815120.48726908
            ],
            [
              323528.5122331984,
              5815120.992550566
            ],
            [
              323527.90488485235,
              5815115.013317506
            ],
            [
              323532.87928839657,
              5815114.50803602
            ],
            [
              323533.4866367425,
              5815120.48726908
            ]
          ]
        ]
      }
    },
    {
      "type": "Feature",
      "properties": {
        "name": "Main tower",
        "height": 20.1
      },
      "geometry": {
        "type": "Polygon",
        "coordinates": [
          [
            [
              323535.943471181,
              5815136.164245496
            ],
            [
              323534.34223415214,
              5815120.400360664
            ],
            [
              323531.9495460475,
              5815120.643401059
            ],
            [
              323531.34219770133,
              5815114.664167999
            ],
            [
              323533.7348858062,
              5815114.421127604
            ],
            [
              323532.4484391429,
              5815101.756296181
            ],
            [
              323530.05575103825,
              5815101.999336576
            ],
            [
              323529.6848744275,
              5815098.348124375
            ],
            [
              323532.0775625324,
              5815098.10508398
            ],
            [
              323529.3057904132,
              5815070.817495897
            ],
            [
              323519.22466419055,
              5815071.841499357
            ],
            [
              323519.68932104507,
              5815076.415960856
            ],
            [
              323518.09751191095,
              5815076.577650932
            ],
            [
              323517.63285505644,
              5815072.003189432
            ],
            [
              323507.5517288338,
              5815073.027192892
            ],
            [
              323511.98082422686,
              5815116.6308245985
            ],
            [
              323522.333552883,
              5815115.57923277
            ],
            [
              323522.6316689595,
              5815118.514130861
            ],
            [
              323512.2789403035,
              5815119.565722689
            ],
            [
              323514.18940960173,
              5815138.37394249
            ],
            [
              323535.943471181,
              5815136.164245496
            ]
          ]
        ]
      }
    }
  ]
}