{
  "type": "FeatureCollection",
  "features": [
    {
      "type": "Feature",
      "properties": {
        "name": "Northern podium",
        "height": 14.3
      },
      "geometry": {
        "type": "Polygon",
        "coordinates": [
          [
            [
              323547.31910065503,
              5815147.547942965
            ],
            [
              323521.3457499896,
              5815150.186219716
            ],
            [
              323520.383188759,
              5815140.709980965
            ],
            [
              323546.3565394244,
              5815138.0717042135
            ],
            [
              323547.31910065503,
              5815147.547942965
            ]
          ]
        ]
      }
    },
    {
      "type": "Feature",
      "properties": {
        "name": "Stair core north",
        "height": 20.1
      },
      "geometry": {
        "type": "Polygon",
        "coordinates": [
          [
            [
              323530.70806075516,
              5815139.661218712
            ],
            [
              323521.15720595047,
              5815140.631359165
            ],
            [
              323520.85908987373,
              5815137.696461073
            ],
            [
              323530.4099446784,
              5815136.726320621
            ],
            [
              323530.70806075516,
              5815139.661218712
            ]
          ]
        ]
      }
    },
    {
      "type": "Feature",
      "properties": {
        "name": "Roof south stairwell",
        "height": 22.25
      },
      "geometry": {
        "type": "Polygon",
        "coordinates": [
          [
            [
              323527.36758336297,
              5815102.272390691
            ],
            [
              323521.8062002006,
              5815102.8372953925
            ],
            [
              323521.43532358995,
              5815099.186083191
            ],
            [
              323526.99670675234,
              5815098.621178489
            ],
            [
              323527.36758336297,
              5815102.272390691
            ]
          ]
        ]
      }
    },
    {
      "type": "Feature",
      "properties": {
        "name": "Roof HW heat pump",
        "height": 22.0
      },
      "geometry": {
        "type": "Polygon",
        "coordinates": [
          [
            [
              323521.6103824461,
              5815098.5049052425
            ],
            [
              323513.9895962165,
              5815099.278996479
            ],
            [
              323513.468145723,
              5815094.145412021
            ],
            [
              323521.0889319526,
              5815093.371320785
            ],
            [
              323521.6103824461,
              5815098.5049052425
            ]
          ]
        ]
      }
    },
    {
      "type": "Feature",
      "properties": {
        "name": "Roof north stairwell",
        "height": 21.1
      },
      "geometry": {
        "type": "Polygon",
        "coordinates": [
          [
            [
              323529.80358835845,
              5815120.861379492
            ],
            [
              323524.82918481436,
              5815121.366660978
            ],
            [
              323524.2218364683,
              5815115.387427918
            ],
            [
              323529.19624001253,
              5815114.882146432
            ],
            [
              323529.80358835845,
              5815120.861379492
            ]
          ]
        ]
      }
    },
    {
      "type": "Feature",
      "properties": {
        "name": "Main tower",
        "height": 20.1
      },
      "geometry": {
        "type": "Polygon",
        "coordinates": [
          [
            [
              323532.26042279694,
              5815136.538355907
            ],
            [
              323530.6591857681,
              5815120.774471076
            ],
            [
              323528.26649766334,
              5815121.017511471
            ],
            [
              323527.6591493173,
              5815115.038278411
            ],
            [
              323530.05183742207,
              5815114.795238016
            ],
            [
              323528.76539075887,
              5815102.130406593
            ],
            [
              323526.3727026541,
              5815102.373446988
            ],
            [
              323526.0018260435,
              5815098.7222347865
            ],
            [
              323528.39451414824,
              5815098.4791943915
            ],
            [
              323525.622742029,
              5815071.191606309
            ],
            [
              323515.5416158065,
              5815072.215609769
            ],
            [
              323516.00627266103,
              5815076.790071269
            ],
            [
              323514.4144635268,
              5815076.9517613435
            ],
            [
              323513.9498066723,
              5815072.377299844
            ],
            [
              323503.86868044967,
              5815073.401303303
            ],
            [
              323508.2977758427,
              5815117.00493501
            ],
            [
              323518.65050449886,
              5815115.953343182
            ],
            [
              323518.9486205755,
              5815118.888241272
            ],
            [
              323508.59589191945,
              5815119.939833101
            ],
            [
              323510.5063612177,
              5815138.748052902
            ],
            [
              323532.26042279694,
              5815136.538355907
            ]
          ]
        ]
      }
    }
  ]
}