{
  "type": "FeatureCollection",
  "features": [
    {
      "type": "Feature",
      "properties": {
        "name": "Northern podium",
        "height": 14.3
      },
      "geometry": {
        "type": "Polygon",
        "coordinates": [
          [
            [
              144.99592285939156,
              -37.794014158810256
            ],
            [
              144.99562867285962,
              -37.79398537662654
            ],
            [
              144.9956154396165,
              -37.794070549663516
            ],
            [
              144.99590962647827,
              -37.79409933188934
            ],
            [
              144.99592285939156,
              -37.794014158810256
            ]
          ]
        ]
      }
    },
    {
      "type": "Feature",
      "properties": {
        "name": "Stair core north",
        "height": 20.1
      },
      "geometry": {
        "type": "Polygon",
        "coordinates": [
          [
            [
              144.9957323841308,
              -37.794081991200954
            ],
            [
              144.99562420650966,
              -37.79407140739696
            ],
            [
              144.99562010802092,
              -37.79409778644746
            ],
            [
              144.99572828567963,
              -37.79410837025626
            ],
            [
              144.9957323841308,
              -37.794081991200954
            ]
          ]
        ]
      }
    },
    {
      "type": "Feature",
      "properties": {
        "name": "Roof south stairwell",
        "height": 22.25
      },
      "geometry": {
        "type": "Polygon",
        "coordinates": [
          [
            [
              144.9956853634928,
              -37.79441813275044
            ],
            [
              144.9956223722819,
              -37.79441196986872
            ],
            [
              144.9956172734525,
              -37.79444478719334
            ],
            [
              144.99568026469063,
              -37.794450950078534
            ],
            [
              144.9956853634928,
              -37.79441813275044
            ]
          ]
        ]
      }
    },
    {
      "type": "Feature",
      "properties": {
        "name": "Roof HW heat pump",
        "height": 22.0
      },
      "geometry": {
        "type": "Polygon",
        "coordinates": [
          [
            [
              144.99561909475577,
              -37.79445095685081
            ],
            [
              144.99553277761498,
              -37.79444251177075
            ],
            [
              144.99552560862782,
              -37.79448865274283
            ],
            [
              144.99561192582104,
              -37.79449709782959
            ],
            [
              144.99561909475577,
              -37.79445095685081
            ]
          ]
        ]
      }
    },
    {
      "type": "Feature",
      "properties": {
        "name": "Roof north stairwell",
        "height": 21.1
      },
      "geometry": {
        "type": "Polygon",
        "coordinates": [
          [
            [
              144.99571754060634,
              -37.79425115955171
            ],
            [
              144.99566119796435,
              -37.79424564715553
            ],
            [
              144.9956528481597,
              -37.7942993888831
            ],
            [
              144.99570919084158,
              -37.79430490128439
            ],
            [
              144.99571754060634,
              -37.79425115955171
            ]
          ]
        ]
      }
    },
    {
      "type": "Feature",
      "properties": {
        "name": "Main tower",
        "height": 20.1
      },
      "geometry": {
        "type": "Polygon",
        "coordinates": [
          [
            [
              144.9957492451051,
              -37.79411042085781
            ],
            [
              144.99572723154174,
              -37.79425210768116
            ],
            [
              144.99570013072895,
              -37.794249456224144
            ],
            [
              144.99569178095183,
              -37.79430319795523
            ],
            [
              144.9957188817838,
              -37.79430584941472
            ],
            [
              144.99570119581156,
              -37.79441968173423
            ],
            [
              144.995674094939,
              -37.79441703026957
            ],
            [
              144.99566899613194,
              -37.79444984759706
            ],
            [
              144.99569609701624,
              -37.79445249906322
            ],
            [
              144.99565799065158,
              -37.79469776163503
            ],
            [
              144.99554380599,
              -37.79468659010885
            ],
            [
              144.9955501941813,
              -37.79464547456878
            ],
            [
              144.99553216444448,
              -37.79464371057679
            ],
            [
              144.9955257762434,
              -37.794684826115606
            ],
            [
              144.99541159162735,
              -37.79467365446231
            ],
            [
              144.9954724840309,
              -37.79428174240433
            ],
            [
              144.99558974436738,
              -37.794293214961925
            ],
            [
              144.99559384288082,
              -37.79426683591392
            ],
            [
              144.99547658258507,
              -37.794255363361536
            ],
            [
              144.99550284798613,
              -37.7940863139284
            ],
            [
              144.9957492451051,
              -37.79411042085781
            ]
          ]
        ]
      }
    }
  ]
}