{
  "type": "FeatureCollection",
  "features": [
    {
      "type": "Feature",
      "properties": {
        "name": "Northern podium",
        "height": 14.3
      },
      "geometry": {
        "type": "Polygon",
        "coordinates": [
          [
            [
              144.99592285939156,
              -37.794014158810256
            ],
            [
              144.99562867285962,
              -37.79398537662654
            ],
            [
              144.9956154396165,
              -37.794070549663516
            ],
            [
              144.99590962647827,
              -37.79409933188934
            ],
            [
              144.99592285939156,
              -37.794014158810256
            ]
          ]
        ]
      }
    },
    {
      "type": "Feature",
      "properties": {
        "name": "Stair core north",
        "height": 20.1
      },
      "geometry": {
        "type": "Polygon",
        "coordinates": [
          [
            [
              144.99582350126704,
              -37.79409090577442
            ],
            [
              144.99571532361614,
              -37.79408032205342
            ],
            [
              144.99571122515903,
              -37.79410670110796
            ],
            [
              144.9958194028475,
              -37.79411728483376
            ],
            [
              144.99582350126704,
              -37.79409090577442
            ]
          ]
        ]
      }
    },
    {
      "type": "Feature",
      "properties": {
        "name": "Roof south stairwell",
        "height": 22.25
      },
      "geometry": {
        "type": "Polygon",
        "coordinates": [
          [
            [
              144.9958502675532,
              -37.794434266333006
            ],
            [
              144.99578727631095,
              -37.794428103538756
            ],
            [
              144.9957821775528,
              -37.79446092087249
            ],
            [
              144.99584516882226,
              -37.79446708367019
            ],
            [
              144.9958502675532,
              -37.794434266333006
            ]
          ]
        ]
      }
    },
    {
      "type": "Feature",
      "properties": {
        "name": "Roof HW heat pump",
        "height": 22.0
      },
      "geometry": {
        "type": "Polygon",
        "coordinates": [
          [
            [
              144.9957102123259,
              -37.79445987152392
            ],
            [
              144.99562389516137,
              -37.79445142651008
            ],
            [
              144.99561672622957,
              -37.79449756748923
            ],
            [
              144.99570304344653,
              -37.794506012509764
            ],
            [
              144.9957102123259,
              -37.79445987152392
            ]
          ]
        ]
      }
    },
    {
      "type": "Feature",
      "properties": {
        "name": "Roof north stairwell",
        "height": 21.1
      },
      "geometry": {
        "type": "Polygon",
        "coordinates": [
          [
            [
              144.99588244430598,
              -37.79426729307929
            ],
            [
              144.99582610163594,
              -37.79426178076134
            ],
            [
              144.99581775194798,
              -37.79431552250381
            ],
            [
              144.99587409465786,
              -37.794321034826865
            ],
            [
              144.99588244430598,
              -37.79426729307929
            ]
          ]
        ]
      }
    },
    {
      "type": "Feature",
      "properties": {
        "name": "Main tower",
        "height": 20.1
      },
      "geometry": {
        "type": "Polygon",
        "coordinates": [
          [
            [
              144.99591414850198,
              -37.79412655433266
            ],
            [
              144.9958921352462,
              -37.79426824119529
            ],
            [
              144.99586503441992,
              -37.794265589775904
            ],
            [
              144.9958566847595,
              -37.79431933152189
            ],
            [
              144.99588378560495,
              -37.794321982943735
            ],
            [
              144.99586609987986,
              -37.79443581529481
            ],
            [
              144.9958389989938,
              -37.79443316386778
            ],
            [
              144.99583390025796,
              -37.794465981204375
            ],
            [
              144.99586100115576,
              -37.794468632632885
            ],
            [
              144.99582289532353,
              -37.7947138952727
            ],
            [
              144.99567181721892,
              -37.7946991143822
            ],
            [
              144.99567820534094,
              -37.79465799883328
            ],
            [
              144.99566017559715,
              -37.794656234860724
            ],
            [
              144.99565378746536,
              -37.794697350408384
            ],
            [
              144.9955027094378,
              -37.79468256930275
            ],
            [
              144.9955636013712,
              -37.79429065718475
            ],
            [
              144.9956808617399,
              -37.79430212965236
            ],
            [
              144.99568496022172,
              -37.79427575060032
            ],
            [
              144.99556769989374,
              -37.79426427813791
            ],
            [
              144.995593965092,
              -37.79409522867886
            ],
            [
              144.99591414850198,
              -37.79412655433266
            ]
          ]
        ]
      }
    }
  ]
}