{
  "type": "FeatureCollection",
  "features": [
    {
      "type": "Feature",
      "properties": {
        "name": "Northern podium",
        "height": 14.3
      },
      "geometry": {
        "type": "Polygon",
        "coordinates": [
          [
            [
              144.99592285939156,
              -37.794014158810256
            ],
            [
              144.99562867285962,
              -37.79398537662654
            ],
            [
              144.9956154396165,
              -37.794070549663516
            ],
            [
              144.99590962647827,
              -37.79409933188934
            ],
            [
              144.99592285939156,
              -37.794014158810256
            ]
          ]
        ]
      }
    },
    {
      "type": "Feature",
      "properties": {
        "name": "Stair core north",
        "height": 20.1
      },
      "geometry": {
        "type": "Polygon",
        "coordinates": [
          [
            [
              144.9957671587361,
              -37.79408539343203
            ],
            [
              144.99565898110362,
              -37.79407480965969
            ],
            [
              144.99565488262692,
              -37.79410118871174
            ],
            [
              144.995763060297,
              -37.79411177248886
            ],
            [
              144.9957671587361,
              -37.79408539343203
            ]
          ]
        ]
      }
    },
    {
      "type": "Feature",
      "properties": {
        "name": "Roof south stairwell",
        "height": 22.25
      },
      "geometry": {
        "type": "Polygon",
        "coordinates": [
          [
            [
              144.99572013825232,
              -37.79442153499962
            ],
            [
              144.9956571470348,
              -37.794415372136356
            ],
            [
              144.99565204822042,
              -37.7944481894629
            ],
            [
              144.99571503946515,
              -37.79445435232964
            ],
            [
              144.99572013825232,
              -37.79442153499962
            ]
          ]
        ]
      }
    },
    {
      "type": "Feature",
      "properties": {
        "name": "Roof HW heat pump",
        "height": 22.0
      },
      "geometry": {
        "type": "Polygon",
        "coordinates": [
          [
            [
              144.99565386952665,
              -37.79445435911992
            ],
            [
              144.99556755237683,
              -37.79444591406512
            ],
            [
              144.9955603834108,
              -37.7944920550399
            ],
            [
              144.99564670061307,
              -37.79450050010139
            ],
            [
              144.99565386952665,
              -37.79445435911992
            ]
          ]
        ]
      }
    },
    {
      "type": "Feature",
      "properties": {
        "name": "Roof north stairwell",
        "height": 21.1
      },
      "geometry": {
        "type": "Polygon",
        "coordinates": [
          [
            [
              144.99575231528976,
              -37.794254561789316
            ],
            [
              144.99569597264184,
              -37.7942490494096
            ],
            [
              144.99568762286182,
              -37.79430279114033
            ],
            [
              144.9957439655496,
              -37.79430830352513
            ],
            [
              144.99575231528976,
              -37.794254561789316
            ]
          ]
        ]
      }
    },
    {
      "type": "Feature",
      "properties": {
        "name": "Main tower",
        "height": 20.1
      },
      "geometry": {
        "type": "Polygon",
        "coordinates": [
          [
            [
              144.99578401972465,
              -37.79411382308428
            ],
            [
              144.9957620062262,
              -37.79425550991593
            ],
            [
              144.99573490541056,
              -37.79425285846684
            ],
            [
              144.99572655565805,
              -37.79430660020108
            ],
            [
              144.99575365649284,
              -37.79430925165261
            ],
            [
              144.99573597057275,
              -37.794423083978785
            ],
            [
              144.99570886969732,
              -37.794420432522074
            ],
            [
              144.9957037709053,
              -37.79445324985147
            ],
            [
              144.99573087179243,
              -37.794455901309675
            ],
            [
              144.99569276554,
              -37.79470116389584
            ],
            [
              144.99557858086646,
              -37.7946899924031
            ],
            [
              144.99558496903896,
              -37.79464887686063
            ],
            [
              144.99556693930026,
              -37.7946471128739
            ],
            [
              144.99556055111802,
              -37.79468822841512
            ],
            [
              144.99544636648997,
              -37.794677056795265
            ],
            [
              144.9955072587141,
              -37.79428514471437
            ],
            [
              144.9956245190629,
              -37.79429661723763
            ],
            [
              144.99562861756422,
              -37.79427023818808
            ],
            [
              144.9955113572562,
              -37.794258765670044
            ],
            [
              144.99553762257986,
              -37.79408971622701
            ],
            [
              144.99578401972465,
              -37.79411382308428
            ]
          ]
        ]
      }
    }
  ]
}