{
  "type": "FeatureCollection",
  "features": [
    {
      "type": "Feature",
      "properties": {
        "name": "House 20 veranda strip 4",
        "height": 3.3
      },
      "geometry": {
        "type": "Polygon",
        "coordinates": [
          [
            [
              323570.8573090157,
              5815124.132300965
            ],
            [
              323571.2303892814,
              5815124.094404853
            ],
            [
              323570.72510779556,
              5815119.120001309
            ],
            [
              323570.35202752985,
              5815119.15789742
            ],
            [
              323570.8573090157,
              5815124.132300965
            ]
          ]
        ]
      }
    },
    {
      "type": "Feature",
      "properties": {
        "name": "House 20 veranda strip 3",
        "height": 3.2
      },
      "geometry": {
        "type": "Polygon",
        "coordinates": [
          [
            [
              323570.4842287499,
              5815124.170197076
            ],
            [
              323570.8573090157,
              5815124.132300965
            ],
            [
              323570.35202752985,
              5815119.15789742
            ],
            [
              323569.978947264,
              5815119.195793532
            ],
            [
              323570.4842287499,
              5815124.170197076
            ]
          ]
        ]
      }
    },
    {
      "type": "Feature",
      "properties": {
        "name": "House 20 veranda strip 2",
        "height": 3.1
      },
      "geometry": {
        "type": "Polygon",
        "coordinates": [
          [
            [
              323570.11114848405,
              5815124.208093188
            ],
            [
              323570.4842287499,
              5815124.170197076
            ],
            [
              323569.978947264,
              5815119.195793532
            ],
            [
              323569.6058669982,
              5815119.2336896425
            ],
            [
              323570.11114848405,
              5815124.208093188
            ]
          ]
        ]
      }
    },
    {
      "type": "Feature",
      "properties": {
        "name": "House 20 veranda strip 1",
        "height": 3.0
      },
      "geometry": {
        "type": "Polygon",
        "coordinates": [
          [
            [
              323569.7380682182,
              5815124.245989298
            ],
            [
              323570.11114848405,
              5815124.208093188
            ],
            [
              323569.6058669982,
              5815119.2336896425
            ],
            [
              323569.2327867324,
              5815119.271585754
            ],
            [
              323569.7380682182,
              5815124.245989298
            ]
          ]
        ]
      }
    },
    {
      "type": "Feature",
      "properties": {
        "name": "House 20 main body",
        "height": 3.8
      },
      "geometry": {
        "type": "Polygon",
        "coordinates": [
          [
            [
              323571.2303892814,
              5815124.094404853
            ],
            [
              323583.31818989385,
              5815122.866570842
            ],
            [
              323582.812908408,
              5815117.892167298
            ],
            [
              323570.72510779556,
              5815119.120001309
            ],
            [
              323571.2303892814,
              5815124.094404853
            ]
          ]
        ]
      }
    },
    {
      "type": "Feature",
      "properties": {
        "name": "House 20 north wall",
        "height": 4.4
      },
      "geometry": {
        "type": "Polygon",
        "coordinates": [
          [
            [
              323571.2303892814,
              5815124.094404853
            ],
            [
              323583.31818989385,
              5815122.866570842
            ],
            [
              323583.2929258195,
              5815122.617850665
            ],
            [
              323571.2051252071,
              5815123.8456846755
            ],
            [
              323571.2303892814,
              5815124.094404853
            ]
          ]
        ]
      }
    },
    {
      "type": "Feature",
      "properties": {
        "name": "House 20 south wall",
        "height": 4.4
      },
      "geometry": {
        "type": "Polygon",
        "coordinates": [
          [
            [
              323570.7402662402,
              5815119.269233415
            ],
            [
              323582.8280668524,
              5815118.041399404
            ],
            [
              323582.812908408,
              5815117.892167298
            ],
            [
              323570.72510779556,
              5815119.120001309
            ],
            [
              323570.7402662402,
              5815119.269233415
            ]
          ]
        ]
      }
    },
    {
      "type": "Feature",
      "properties": {
        "name": "House 20 gable strip 1",
        "height": 4.0
      },
      "geometry": {
        "type": "Polygon",
        "coordinates": [
          [
            [
              323571.19880918856,
              5815123.783504631
            ],
            [
              323580.79940802883,
              5815122.808311364
            ],
            [
              323580.3572867287,
              5815118.4557082625
            ],
            [
              323570.7566878884,
              5815119.43090153
            ],
            [
              323571.19880918856,
              5815123.783504631
            ]
          ]
        ]
      }
    },
    {
      "type": "Feature",
      "properties": {
        "name": "House 20 gable strip 2",
        "height": 4.2
      },
      "geometry": {
        "type": "Polygon",
        "coordinates": [
          [
            [
              323571.1672290957,
              5815123.47260441
            ],
            [
              323580.767827936,
              5815122.497411142
            ],
            [
              323580.38886682154,
              5815118.766608484
            ],
            [
              323570.78826798126,
              5815119.741801752
            ],
            [
              323571.1672290957,
              5815123.47260441
            ]
          ]
        ]
      }
    },
    {
      "type": "Feature",
      "properties": {
        "name": "House 20 gable strip 3",
        "height": 4.4
      },
      "geometry": {
        "type": "Polygon",
        "coordinates": [
          [
            [
              323571.13564900286,
              5815123.161704188
            ],
            [
              323580.73624784313,
              5815122.1865109205
            ],
            [
              323580.4204469144,
              5815119.077508706
            ],
            [
              323570.8198480741,
              5815120.052701973
            ],
            [
              323571.13564900286,
              5815123.161704188
            ]
          ]
        ]
      }
    },
    {
      "type": "Feature",
      "properties": {
        "name": "House 20 gable strip 4",
        "height": 4.6
      },
      "geometry": {
        "type": "Polygon",
        "coordinates": [
          [
            [
              323571.10406891,
              5815122.850803967
            ],
            [
              323580.7046677503,
              5815121.875610699
            ],
            [
              323580.45202700724,
              5815119.388408927
            ],
            [
              323570.85142816696,
              5815120.363602195
            ],
            [
              323571.10406891,
              5815122.850803967
            ]
          ]
        ]
      }
    },
    {
      "type": "Feature",
      "properties": {
        "name": "House 20 gable strip 5",
        "height": 4.800000000000001
      },
      "geometry": {
        "type": "Polygon",
        "coordinates": [
          [
            [
              323571.07248881715,
              5815122.539903745
            ],
            [
              323580.67308765743,
              5815121.564710477
            ],
            [
              323580.4836071001,
              5815119.699309148
            ],
            [
              323570.8830082598,
              5815120.674502416
            ],
            [
              323571.07248881715,
              5815122.539903745
            ]
          ]
        ]
      }
    },
    {
      "type": "Feature",
      "properties": {
        "name": "House 20 gable strip 6",
        "height": 5.0
      },
      "geometry": {
        "type": "Polygon",
        "coordinates": [
          [
            [
              323571.0409087243,
              5815122.2290035235
            ],
            [
              323580.6415075646,
              5815121.253810256
            ],
            [
              323580.5151871932,
              5815120.0102093695
            ],
            [
              323570.9145883529,
              5815120.985402637
            ],
            [
              323571.0409087243,
              5815122.2290035235
            ]
          ]
        ]
      }
    },
    {
      "type": "Feature",
      "properties": {
        "name": "House 20 gable strip 7",
        "height": 5.2
      },
      "geometry": {
        "type": "Polygon",
        "coordinates": [
          [
            [
              323571.00932863145,
              5815121.918103302
            ],
            [
              323580.6099274717,
              5815120.942910034
            ],
            [
              323580.546767286,
              5815120.321109591
            ],
            [
              323570.94616844575,
              5815121.296302859
            ],
            [
              323571.00932863145,
              5815121.918103302
            ]
          ]
        ]
      }
    },
    {
      "type": "Feature",
      "properties": {
        "name": "House 20 gable strip 8",
        "height": 5.4
      },
      "geometry": {
        "type": "Polygon",
        "coordinates": [
          [
            [
              323570.9828013533,
              5815121.656947115
            ],
            [
              323580.5834001936,
              5815120.681753848
            ],
            [
              323580.5732945639,
              5815120.5822657775
            ],
            [
              323570.97269572364,
              5815121.557459045
            ],
            [
              323570.9828013533,
              5815121.656947115
            ]
          ]
        ]
      }
    },
    {
      "type": "Feature",
      "properties": {
        "name": "House 20 hip 1 strip 1",
        "height": 3.98
      },
      "geometry": {
        "type": "Polygon",
        "coordinates": [
          [
            [
              323580.79940802883,
              5815122.808311364
            ],
            [
              323581.29684838327,
              5815122.757783215
            ],
            [
              323580.8547270831,
              5815118.405180113
            ],
            [
              323580.3572867287,
              5815118.4557082625
            ],
            [
              323580.79940802883,
              5815122.808311364
            ]
          ]
        ]
      }
    },
    {
      "type": "Feature",
      "properties": {
        "name": "House 20 hip 1 strip 2",
        "height": 4.16
      },
      "geometry": {
        "type": "Polygon",
        "coordinates": [
          [
            [
              323580.767827936,
              5815122.497411142
            ],
            [
              323581.2652682904,
              5815122.446882993
            ],
            [
              323580.88630717597,
              5815118.716080335
            ],
            [
              323580.38886682154,
              5815118.766608484
            ],
            [
              323580.767827936,
              5815122.497411142
            ]
          ]
        ]
      }
    },
    {
      "type": "Feature",
      "properties": {
        "name": "House 20 hip 1 strip 3",
        "height": 4.34
      },
      "geometry": {
        "type": "Polygon",
        "coordinates": [
          [
            [
              323580.73624784313,
              5815122.1865109205
            ],
            [
              323581.23368819756,
              5815122.135982771
            ],
            [
              323580.9178872688,
              5815119.026980557
            ],
            [
              323580.4204469144,
              5815119.077508706
            ],
            [
              323580.73624784313,
              5815122.1865109205
            ]
          ]
        ]
      }
    },
    {
      "type": "Feature",
      "properties": {
        "name": "House 20 hip 1 strip 4",
        "height": 4.52
      },
      "geometry": {
        "type": "Polygon",
        "coordinates": [
          [
            [
              323580.7046677503,
              5815121.875610699
            ],
            [
              323581.2021081046,
              5815121.82508255
            ],
            [
              323580.9494673617,
              5815119.337880778
            ],
            [
              323580.45202700724,
              5815119.388408927
            ],
            [
              323580.7046677503,
              5815121.875610699
            ]
          ]
        ]
      }
    },
    {
      "type": "Feature",
      "properties": {
        "name": "House 20 hip 1 strip 5",
        "height": 4.7
      },
      "geometry": {
        "type": "Polygon",
        "coordinates": [
          [
            [
              323580.67308765743,
              5815121.564710477
            ],
            [
              323581.17052801175,
              5815121.514182328
            ],
            [
              323580.9810474545,
              5815119.648780999
            ],
            [
              323580.4836071001,
              5815119.699309148
            ],
            [
              323580.67308765743,
              5815121.564710477
            ]
          ]
        ]
      }
    },
    {
      "type": "Feature",
      "properties": {
        "name": "House 20 hip 1 strip 6",
        "height": 4.88
      },
      "geometry": {
        "type": "Polygon",
        "coordinates": [
          [
            [
              323580.6415075646,
              5815121.253810256
            ],
            [
              323581.1389479189,
              5815121.203282107
            ],
            [
              323581.0126275475,
              5815119.95968122
            ],
            [
              323580.5151871932,
              5815120.0102093695
            ],
            [
              323580.6415075646,
              5815121.253810256
            ]
          ]
        ]
      }
    },
    {
      "type": "Feature",
      "properties": {
        "name": "House 20 hip 1 strip 7",
        "height": 5.0600000000000005
      },
      "geometry": {
        "type": "Polygon",
        "coordinates": [
          [
            [
              323580.6099274717,
              5815120.942910034
            ],
            [
              323581.10736782604,
              5815120.892381885
            ],
            [
              323581.04420764034,
              5815120.270581442
            ],
            [
              323580.546767286,
              5815120.321109591
            ],
            [
              323580.6099274717,
              5815120.942910034
            ]
          ]
        ]
      }
    },
    {
      "type": "Feature",
      "properties": {
        "name": "House 20 hip 1 strip 8",
        "height": 5.24
      },
      "geometry": {
        "type": "Polygon",
        "coordinates": [
          [
            [
              323580.5834001936,
              5815120.681753848
            ],
            [
              323581.08084054803,
              5815120.631225699
            ],
            [
              323581.07073491835,
              5815120.531737628
            ],
            [
              323580.5732945639,
              5815120.5822657775
            ],
            [
              323580.5834001936,
              5815120.681753848
            ]
          ]
        ]
      }
    },
    {
      "type": "Feature",
      "properties": {
        "name": "House 20 hip 2 strip 1",
        "height": 3.94
      },
      "geometry": {
        "type": "Polygon",
        "coordinates": [
          [
            [
              323581.29684838327,
              5815122.757783215
            ],
            [
              323581.7942887377,
              5815122.707255066
            ],
            [
              323581.35216743755,
              5815118.354651965
            ],
            [
              323580.8547270831,
              5815118.405180113
            ],
            [
              323581.29684838327,
              5815122.757783215
            ]
          ]
        ]
      }
    },
    {
      "type": "Feature",
      "properties": {
        "name": "House 20 hip 2 strip 2",
        "height": 4.08
      },
      "geometry": {
        "type": "Polygon",
        "coordinates": [
          [
            [
              323581.2652682904,
              5815122.446882993
            ],
            [
              323581.76270864485,
              5815122.396354845
            ],
            [
              323581.3837475304,
              5815118.665552187
            ],
            [
              323580.88630717597,
              5815118.716080335
            ],
            [
              323581.2652682904,
              5815122.446882993
            ]
          ]
        ]
      }
    },
    {
      "type": "Feature",
      "properties": {
        "name": "House 20 hip 2 strip 3",
        "height": 4.22
      },
      "geometry": {
        "type": "Polygon",
        "coordinates": [
          [
            [
              323581.23368819756,
              5815122.135982771
            ],
            [
              323581.731128552,
              5815122.085454623
            ],
            [
              323581.41532762325,
              5815118.976452408
            ],
            [
              323580.9178872688,
              5815119.026980557
            ],
            [
              323581.23368819756,
              5815122.135982771
            ]
          ]
        ]
      }
    },
    {
      "type": "Feature",
      "properties": {
        "name": "House 20 hip 2 strip 4",
        "height": 4.359999999999999
      },
      "geometry": {
        "type": "Polygon",
        "coordinates": [
          [
            [
              323581.2021081046,
              5815121.82508255
            ],
            [
              323581.69954845903,
              5815121.774554402
            ],
            [
              323581.4469077161,
              5815119.28735263
            ],
            [
              323580.9494673617,
              5815119.337880778
            ],
            [
              323581.2021081046,
              5815121.82508255
            ]
          ]
        ]
      }
    },
    {
      "type": "Feature",
      "properties": {
        "name": "House 20 hip 2 strip 5",
        "height": 4.5
      },
      "geometry": {
        "type": "Polygon",
        "coordinates": [
          [
            [
              323581.17052801175,
              5815121.514182328
            ],
            [
              323581.6679683662,
              5815121.46365418
            ],
            [
              323581.47848780896,
              5815119.598252851
            ],
            [
              323580.9810474545,
              5815119.648780999
            ],
            [
              323581.17052801175,
              5815121.514182328
            ]
          ]
        ]
      }
    },
    {
      "type": "Feature",
      "properties": {
        "name": "House 20 hip 2 strip 6",
        "height": 4.64
      },
      "geometry": {
        "type": "Polygon",
        "coordinates": [
          [
            [
              323581.1389479189,
              5815121.203282107
            ],
            [
              323581.6363882733,
              5815121.1527539585
            ],
            [
              323581.5100679019,
              5815119.909153072
            ],
            [
              323581.0126275475,
              5815119.95968122
            ],
            [
              323581.1389479189,
              5815121.203282107
            ]
          ]
        ]
      }
    },
    {
      "type": "Feature",
      "properties": {
        "name": "House 20 hip 2 strip 7",
        "height": 4.78
      },
      "geometry": {
        "type": "Polygon",
        "coordinates": [
          [
            [
              323581.10736782604,
              5815120.892381885
            ],
            [
              323581.6048081805,
              5815120.841853737
            ],
            [
              323581.5416479948,
              5815120.220053294
            ],
            [
              323581.04420764034,
              5815120.270581442
            ],
            [
              323581.10736782604,
              5815120.892381885
            ]
          ]
        ]
      }
    },
    {
      "type": "Feature",
      "properties": {
        "name": "House 20 hip 2 strip 8",
        "height": 4.92
      },
      "geometry": {
        "type": "Polygon",
        "coordinates": [
          [
            [
              323581.08084054803,
              5815120.631225699
            ],
            [
              323581.57828090247,
              5815120.58069755
            ],
            [
              323581.5681752728,
              5815120.48120948
            ],
            [
              323581.07073491835,
              5815120.531737628
            ],
            [
              323581.08084054803,
              5815120.631225699
            ]
          ]
        ]
      }
    },
    {
      "type": "Feature",
      "properties": {
        "name": "House 20 hip 3 strip 1",
        "height": 3.9
      },
      "geometry": {
        "type": "Polygon",
        "coordinates": [
          [
            [
              323581.7942887377,
              5815122.707255066
            ],
            [
              323582.29172909213,
              5815122.656726918
            ],
            [
              323581.849607792,
              5815118.304123817
            ],
            [
              323581.35216743755,
              5815118.354651965
            ],
            [
              323581.7942887377,
              5815122.707255066
            ]
          ]
        ]
      }
    },
    {
      "type": "Feature",
      "properties": {
        "name": "House 20 hip 3 strip 2",
        "height": 4.0
      },
      "geometry": {
        "type": "Polygon",
        "coordinates": [
          [
            [
              323581.76270864485,
              5815122.396354845
            ],
            [
              323582.2601489993,
              5815122.345826697
            ],
            [
              323581.88118788484,
              5815118.615024039
            ],
            [
              323581.3837475304,
              5815118.665552187
            ],
            [
              323581.76270864485,
              5815122.396354845
            ]
          ]
        ]
      }
    },
    {
      "type": "Feature",
      "properties": {
        "name": "House 20 hip 3 strip 3",
        "height": 4.1
      },
      "geometry": {
        "type": "Polygon",
        "coordinates": [
          [
            [
              323581.731128552,
              5815122.085454623
            ],
            [
              323582.22856890643,
              5815122.034926475
            ],
            [
              323581.9127679777,
              5815118.92592426
            ],
            [
              323581.41532762325,
              5815118.976452408
            ],
            [
              323581.731128552,
              5815122.085454623
            ]
          ]
        ]
      }
    },
    {
      "type": "Feature",
      "properties": {
        "name": "House 20 hip 3 strip 4",
        "height": 4.199999999999999
      },
      "geometry": {
        "type": "Polygon",
        "coordinates": [
          [
            [
              323581.69954845903,
              5815121.774554402
            ],
            [
              323582.19698881346,
              5815121.724026253
            ],
            [
              323581.94434807054,
              5815119.236824482
            ],
            [
              323581.4469077161,
              5815119.28735263
            ],
            [
              323581.69954845903,
              5815121.774554402
            ]
          ]
        ]
      }
    },
    {
      "type": "Feature",
      "properties": {
        "name": "House 20 hip 3 strip 5",
        "height": 4.3
      },
      "geometry": {
        "type": "Polygon",
        "coordinates": [
          [
            [
              323581.6679683662,
              5815121.46365418
            ],
            [
              323582.1654087206,
              5815121.413126032
            ],
            [
              323581.9759281634,
              5815119.547724702
            ],
            [
              323581.47848780896,
              5815119.598252851
            ],
            [
              323581.6679683662,
              5815121.46365418
            ]
          ]
        ]
      }
    },
    {
      "type": "Feature",
      "properties": {
        "name": "House 20 hip 3 strip 6",
        "height": 4.3999999999999995
      },
      "geometry": {
        "type": "Polygon",
        "coordinates": [
          [
            [
              323581.6363882733,
              5815121.1527539585
            ],
            [
              323582.13382862776,
              5815121.10222581
            ],
            [
              323582.00750825636,
              5815119.858624924
            ],
            [
              323581.5100679019,
              5815119.909153072
            ],
            [
              323581.6363882733,
              5815121.1527539585
            ]
          ]
        ]
      }
    },
    {
      "type": "Feature",
      "properties": {
        "name": "House 20 hip 3 strip 7",
        "height": 4.5
      },
      "geometry": {
        "type": "Polygon",
        "coordinates": [
          [
            [
              323581.6048081805,
              5815120.841853737
            ],
            [
              323582.1022485349,
              5815120.791325589
            ],
            [
              323582.0390883492,
              5815120.169525146
            ],
            [
              323581.5416479948,
              5815120.220053294
            ],
            [
              323581.6048081805,
              5815120.841853737
            ]
          ]
        ]
      }
    },
    {
      "type": "Feature",
      "properties": {
        "name": "House 20 hip 3 strip 8",
        "height": 4.6
      },
      "geometry": {
        "type": "Polygon",
        "coordinates": [
          [
            [
              323581.57828090247,
              5815120.58069755
            ],
            [
              323582.0757212569,
              5815120.530169402
            ],
            [
              323582.0656156272,
              5815120.430681332
            ],
            [
              323581.5681752728,
              5815120.48120948
            ],
            [
              323581.57828090247,
              5815120.58069755
            ]
          ]
        ]
      }
    },
    {
      "type": "Feature",
      "properties": {
        "name": "House 20 hip 4 strip 1",
        "height": 3.86
      },
      "geometry": {
        "type": "Polygon",
        "coordinates": [
          [
            [
              323582.29172909213,
              5815122.656726918
            ],
            [
              323582.78916944657,
              5815122.606198769
            ],
            [
              323582.3470481464,
              5815118.253595668
            ],
            [
              323581.849607792,
              5815118.304123817
            ],
            [
              323582.29172909213,
              5815122.656726918
            ]
          ]
        ]
      }
    },
    {
      "type": "Feature",
      "properties": {
        "name": "House 20 hip 4 strip 2",
        "height": 3.92
      },
      "geometry": {
        "type": "Polygon",
        "coordinates": [
          [
            [
              323582.2601489993,
              5815122.345826697
            ],
            [
              323582.7575893537,
              5815122.2952985475
            ],
            [
              323582.37862823927,
              5815118.5644958895
            ],
            [
              323581.88118788484,
              5815118.615024039
            ],
            [
              323582.2601489993,
              5815122.345826697
            ]
          ]
        ]
      }
    },
    {
      "type": "Feature",
      "properties": {
        "name": "House 20 hip 4 strip 3",
        "height": 3.98
      },
      "geometry": {
        "type": "Polygon",
        "coordinates": [
          [
            [
              323582.22856890643,
              5815122.034926475
            ],
            [
              323582.72600926086,
              5815121.984398326
            ],
            [
              323582.4102083321,
              5815118.875396111
            ],
            [
              323581.9127679777,
              5815118.92592426
            ],
            [
              323582.22856890643,
              5815122.034926475
            ]
          ]
        ]
      }
    },
    {
      "type": "Feature",
      "properties": {
        "name": "House 20 hip 4 strip 4",
        "height": 4.04
      },
      "geometry": {
        "type": "Polygon",
        "coordinates": [
          [
            [
              323582.19698881346,
              5815121.724026253
            ],
            [
              323582.6944291678,
              5815121.673498104
            ],
            [
              323582.44178842497,
              5815119.186296333
            ],
            [
              323581.94434807054,
              5815119.236824482
            ],
            [
              323582.19698881346,
              5815121.724026253
            ]
          ]
        ]
      }
    },
    {
      "type": "Feature",
      "properties": {
        "name": "House 20 hip 4 strip 5",
        "height": 4.1
      },
      "geometry": {
        "type": "Polygon",
        "coordinates": [
          [
            [
              323582.1654087206,
              5815121.413126032
            ],
            [
              323582.6628490749,
              5815121.362597883
            ],
            [
              323582.4733685178,
              5815119.497196553
            ],
            [
              323581.9759281634,
              5815119.547724702
            ],
            [
              323582.1654087206,
              5815121.413126032
            ]
          ]
        ]
      }
    },
    {
      "type": "Feature",
      "properties": {
        "name": "House 20 hip 4 strip 6",
        "height": 4.16
      },
      "geometry": {
        "type": "Polygon",
        "coordinates": [
          [
            [
              323582.13382862776,
              5815121.10222581
            ],
            [
              323582.6312689821,
              5815121.051697661
            ],
            [
              323582.5049486107,
              5815119.808096775
            ],
            [
              323582.00750825636,
              5815119.858624924
            ],
            [
              323582.13382862776,
              5815121.10222581
            ]
          ]
        ]
      }
    },
    {
      "type": "Feature",
      "properties": {
        "name": "House 20 hip 4 strip 7",
        "height": 4.220000000000001
      },
      "geometry": {
        "type": "Polygon",
        "coordinates": [
          [
            [
              323582.1022485349,
              5815120.791325589
            ],
            [
              323582.5996888892,
              5815120.74079744
            ],
            [
              323582.5365287035,
              5815120.118996996
            ],
            [
              323582.0390883492,
              5815120.169525146
            ],
            [
              323582.1022485349,
              5815120.791325589
            ]
          ]
        ]
      }
    },
    {
      "type": "Feature",
      "properties": {
        "name": "House 20 hip 4 strip 8",
        "height": 4.28
      },
      "geometry": {
        "type": "Polygon",
        "coordinates": [
          [
            [
              323582.0757212569,
              5815120.530169402
            ],
            [
              323582.57316161133,
              5815120.479641253
            ],
            [
              323582.56305598165,
              5815120.380153183
            ],
            [
              323582.0656156272,
              5815120.430681332
            ],
            [
              323582.0757212569,
              5815120.530169402
            ]
          ]
        ]
      }
    },
    {
      "type": "Feature",
      "properties": {
        "name": "House 20 hip 5 strip 1",
        "height": 3.82
      },
      "geometry": {
        "type": "Polygon",
        "coordinates": [
          [
            [
              323582.78916944657,
              5815122.606198769
            ],
            [
              323583.286609801,
              5815122.555670621
            ],
            [
              323582.84448850085,
              5815118.20306752
            ],
            [
              323582.3470481464,
              5815118.253595668
            ],
            [
              323582.78916944657,
              5815122.606198769
            ]
          ]
        ]
      }
    },
    {
      "type": "Feature",
      "properties": {
        "name": "House 20 hip 5 strip 2",
        "height": 3.84
      },
      "geometry": {
        "type": "Polygon",
        "coordinates": [
          [
            [
              323582.7575893537,
              5815122.2952985475
            ],
            [
              323583.25502970815,
              5815122.244770399
            ],
            [
              323582.8760685937,
              5815118.513967741
            ],
            [
              323582.37862823927,
              5815118.5644958895
            ],
            [
              323582.7575893537,
              5815122.2952985475
            ]
          ]
        ]
      }
    },
    {
      "type": "Feature",
      "properties": {
        "name": "House 20 hip 5 strip 3",
        "height": 3.86
      },
      "geometry": {
        "type": "Polygon",
        "coordinates": [
          [
            [
              323582.72600926086,
              5815121.984398326
            ],
            [
              323583.2234496153,
              5815121.933870178
            ],
            [
              323582.90764868655,
              5815118.824867963
            ],
            [
              323582.4102083321,
              5815118.875396111
            ],
            [
              323582.72600926086,
              5815121.984398326
            ]
          ]
        ]
      }
    },
    {
      "type": "Feature",
      "properties": {
        "name": "House 20 hip 5 strip 4",
        "height": 3.88
      },
      "geometry": {
        "type": "Polygon",
        "coordinates": [
          [
            [
              323582.6944291678,
              5815121.673498104
            ],
            [
              323583.1918695222,
              5815121.622969956
            ],
            [
              323582.9392287794,
              5815119.135768184
            ],
            [
              323582.44178842497,
              5815119.186296333
            ],
            [
              323582.6944291678,
              5815121.673498104
            ]
          ]
        ]
      }
    },
    {
      "type": "Feature",
      "properties": {
        "name": "House 20 hip 5 strip 5",
        "height": 3.9
      },
      "geometry": {
        "type": "Polygon",
        "coordinates": [
          [
            [
              323582.6628490749,
              5815121.362597883
            ],
            [
              323583.16028942936,
              5815121.312069735
            ],
            [
              323582.97080887225,
              5815119.446668405
            ],
            [
              323582.4733685178,
              5815119.497196553
            ],
            [
              323582.6628490749,
              5815121.362597883
            ]
          ]
        ]
      }
    },
    {
      "type": "Feature",
      "properties": {
        "name": "House 20 hip 5 strip 6",
        "height": 3.92
      },
      "geometry": {
        "type": "Polygon",
        "coordinates": [
          [
            [
              323582.6312689821,
              5815121.051697661
            ],
            [
              323583.1287093365,
              5815121.001169513
            ],
            [
              323583.0023889651,
              5815119.757568627
            ],
            [
              323582.5049486107,
              5815119.808096775
            ],
            [
              323582.6312689821,
              5815121.051697661
            ]
          ]
        ]
      }
    },
    {
      "type": "Feature",
      "properties": {
        "name": "House 20 hip 5 strip 7",
        "height": 3.94
      },
      "geometry": {
        "type": "Polygon",
        "coordinates": [
          [
            [
              323582.5996888892,
              5815120.74079744
            ],
            [
              323583.09712924366,
              5815120.690269291
            ],
            [
              323583.03396905796,
              5815120.068468848
            ],
            [
              323582.5365287035,
              5815120.118996996
            ],
            [
              323582.5996888892,
              5815120.74079744
            ]
          ]
        ]
      }
    },
    {
      "type": "Feature",
      "properties": {
        "name": "House 20 hip 5 strip 8",
        "height": 3.96
      },
      "geometry": {
        "type": "Polygon",
        "coordinates": [
          [
            [
              323582.57316161133,
              5815120.479641253
            ],
            [
              323583.07060196577,
              5815120.429113105
            ],
            [
              323583.0604963361,
              5815120.329625035
            ],
            [
              323582.56305598165,
              5815120.380153183
            ],
            [
              323582.57316161133,
              5815120.479641253
            ]
          ]
        ]
      }
    },
    {
      "type": "Feature",
      "properties": {
        "name": "House 18 veranda strip 4",
        "height": 3.3
      },
      "geometry": {
        "type": "Polygon",
        "coordinates": [
          [
            [
              323570.35202752985,
              5815119.15789742
            ],
            [
              323570.72510779556,
              5815119.120001309
            ],
            [
              323570.2198263097,
              5815114.145597764
            ],
            [
              323569.8467460439,
              5815114.183493876
            ],
            [
              323570.35202752985,
              5815119.15789742
            ]
          ]
        ]
      }
    },
    {
      "type": "Feature",
      "properties": {
        "name": "House 18 veranda strip 3",
        "height": 3.2
      },
      "geometry": {
        "type": "Polygon",
        "coordinates": [
          [
            [
              323569.978947264,
              5815119.195793532
            ],
            [
              323570.35202752985,
              5815119.15789742
            ],
            [
              323569.8467460439,
              5815114.183493876
            ],
            [
              323569.47366577806,
              5815114.2213899875
            ],
            [
              323569.978947264,
              5815119.195793532
            ]
          ]
        ]
      }
    },
    {
      "type": "Feature",
      "properties": {
        "name": "House 18 veranda strip 2",
        "height": 3.1
      },
      "geometry": {
        "type": "Polygon",
        "coordinates": [
          [
            [
              323569.6058669982,
              5815119.2336896425
            ],
            [
              323569.978947264,
              5815119.195793532
            ],
            [
              323569.47366577806,
              5815114.2213899875
            ],
            [
              323569.10058551223,
              5815114.259286099
            ],
            [
              323569.6058669982,
              5815119.2336896425
            ]
          ]
        ]
      }
    },
    {
      "type": "Feature",
      "properties": {
        "name": "House 18 veranda strip 1",
        "height": 3.0
      },
      "geometry": {
        "type": "Polygon",
        "coordinates": [
          [
            [
              323569.2327867324,
              5815119.271585754
            ],
            [
              323569.6058669982,
              5815119.2336896425
            ],
            [
              323569.10058551223,
              5815114.259286099
            ],
            [
              323568.7275052464,
              5815114.29718221
            ],
            [
              323569.2327867324,
              5815119.271585754
            ]
          ]
        ]
      }
    },
    {
      "type": "Feature",
      "properties": {
        "name": "House 18 main body",
        "height": 3.8
      },
      "geometry": {
        "type": "Polygon",
        "coordinates": [
          [
            [
              323570.72510779556,
              5815119.120001309
            ],
            [
              323582.812908408,
              5815117.892167298
            ],
            [
              323582.3076269219,
              5815112.917763754
            ],
            [
              323570.2198263097,
              5815114.145597764
            ],
            [
              323570.72510779556,
              5815119.120001309
            ]
          ]
        ]
      }
    },
    {
      "type": "Feature",
      "properties": {
        "name": "House 18 north wall",
        "height": 4.4
      },
      "geometry": {
        "type": "Polygon",
        "coordinates": [
          [
            [
              323570.72510779556,
              5815119.120001309
            ],
            [
              323582.812908408,
              5815117.892167298
            ],
            [
              323582.79774996336,
              5815117.742935191
            ],
            [
              323570.7099493509,
              5815118.970769201
            ],
            [
              323570.72510779556,
              5815119.120001309
            ]
          ]
        ]
      }
    },
    {
      "type": "Feature",
      "properties": {
        "name": "House 18 south wall",
        "height": 4.4
      },
      "geometry": {
        "type": "Polygon",
        "coordinates": [
          [
            [
              323570.24509038404,
              5815114.394317942
            ],
            [
              323582.33289099624,
              5815113.166483931
            ],
            [
              323582.3076269219,
              5815112.917763754
            ],
            [
              323570.2198263097,
              5815114.145597764
            ],
            [
              323570.24509038404,
              5815114.394317942
            ]
          ]
        ]
      }
    },
    {
      "type": "Feature",
      "properties": {
        "name": "House 18 gable strip 1",
        "height": 4.0
      },
      "geometry": {
        "type": "Polygon",
        "coordinates": [
          [
            [
              323570.6935277027,
              5815118.809101087
            ],
            [
              323580.294126543,
              5815117.833907819
            ],
            [
              323579.85200524284,
              5815113.481304718
            ],
            [
              323570.25140640256,
              5815114.456497986
            ],
            [
              323570.6935277027,
              5815118.809101087
            ]
          ]
        ]
      }
    },
    {
      "type": "Feature",
      "properties": {
        "name": "House 18 gable strip 2",
        "height": 4.2
      },
      "geometry": {
        "type": "Polygon",
        "coordinates": [
          [
            [
              323570.66194760986,
              5815118.498200865
            ],
            [
              323580.26254645013,
              5815117.523007598
            ],
            [
              323579.8835853357,
              5815113.79220494
            ],
            [
              323570.2829864954,
              5815114.767398207
            ],
            [
              323570.66194760986,
              5815118.498200865
            ]
          ]
        ]
      }
    },
    {
      "type": "Feature",
      "properties": {
        "name": "House 18 gable strip 3",
        "height": 4.4
      },
      "geometry": {
        "type": "Polygon",
        "coordinates": [
          [
            [
              323570.630367517,
              5815118.187300644
            ],
            [
              323580.2309663573,
              5815117.212107376
            ],
            [
              323579.91516542854,
              5815114.103105161
            ],
            [
              323570.31456658826,
              5815115.078298429
            ],
            [
              323570.630367517,
              5815118.187300644
            ]
          ]
        ]
      }
    },
    {
      "type": "Feature",
      "properties": {
        "name": "House 18 gable strip 4",
        "height": 4.6
      },
      "geometry": {
        "type": "Polygon",
        "coordinates": [
          [
            [
              323570.59878742415,
              5815117.876400422
            ],
            [
              323580.19938626443,
              5815116.901207155
            ],
            [
              323579.9467455214,
              5815114.414005383
            ],
            [
              323570.3461466811,
              5815115.389198651
            ],
            [
              323570.59878742415,
              5815117.876400422
            ]
          ]
        ]
      }
    },
    {
      "type": "Feature",
      "properties": {
        "name": "House 18 gable strip 5",
        "height": 4.800000000000001
      },
      "geometry": {
        "type": "Polygon",
        "coordinates": [
          [
            [
              323570.5672073313,
              5815117.565500201
            ],
            [
              323580.1678061716,
              5815116.590306933
            ],
            [
              323579.97832561424,
              5815114.7249056045
            ],
            [
              323570.37772677396,
              5815115.700098872
            ],
            [
              323570.5672073313,
              5815117.565500201
            ]
          ]
        ]
      }
    },
    {
      "type": "Feature",
      "properties": {
        "name": "House 18 gable strip 6",
        "height": 5.0
      },
      "geometry": {
        "type": "Polygon",
        "coordinates": [
          [
            [
              323570.53562723845,
              5815117.254599979
            ],
            [
              323580.1362260787,
              5815116.279406711
            ],
            [
              323580.0099057071,
              5815115.035805826
            ],
            [
              323570.4093068668,
              5815116.010999094
            ],
            [
              323570.53562723845,
              5815117.254599979
            ]
          ]
        ]
      }
    },
    {
      "type": "Feature",
      "properties": {
        "name": "House 18 gable strip 7",
        "height": 5.2
      },
      "geometry": {
        "type": "Polygon",
        "coordinates": [
          [
            [
              323570.50404714537,
              5815116.943699758
            ],
            [
              323580.10464598564,
              5815115.96850649
            ],
            [
              323580.04148579994,
              5815115.346706048
            ],
            [
              323570.44088695967,
              5815116.321899315
            ],
            [
              323570.50404714537,
              5815116.943699758
            ]
          ]
        ]
      }
    },
    {
      "type": "Feature",
      "properties": {
        "name": "House 18 gable strip 8",
        "height": 5.4
      },
      "geometry": {
        "type": "Polygon",
        "coordinates": [
          [
            [
              323570.4775198675,
              5815116.682543572
            ],
            [
              323580.07811870775,
              5815115.707350304
            ],
            [
              323580.06801307807,
              5815115.607862233
            ],
            [
              323570.4674142378,
              5815116.583055501
            ],
            [
              323570.4775198675,
              5815116.682543572
            ]
          ]
        ]
      }
    },
    {
      "type": "Feature",
      "properties": {
        "name": "House 18 hip 1 strip 1",
        "height": 3.98
      },
      "geometry": {
        "type": "Polygon",
        "coordinates": [
          [
            [
              323580.294126543,
              5815117.833907819
            ],
            [
              323580.7915668973,
              5815117.78337967
            ],
            [
              323580.34944559715,
              5815113.430776569
            ],
            [
              323579.85200524284,
              5815113.481304718
            ],
            [
              323580.294126543,
              5815117.833907819
            ]
          ]
        ]
      }
    },
    {
      "type": "Feature",
      "properties": {
        "name": "House 18 hip 1 strip 2",
        "height": 4.16
      },
      "geometry": {
        "type": "Polygon",
        "coordinates": [
          [
            [
              323580.26254645013,
              5815117.523007598
            ],
            [
              323580.75998680445,
              5815117.472479449
            ],
            [
              323580.38102569,
              5815113.741676791
            ],
            [
              323579.8835853357,
              5815113.79220494
            ],
            [
              323580.26254645013,
              5815117.523007598
            ]
          ]
        ]
      }
    },
    {
      "type": "Feature",
      "properties": {
        "name": "House 18 hip 1 strip 3",
        "height": 4.34
      },
      "geometry": {
        "type": "Polygon",
        "coordinates": [
          [
            [
              323580.2309663573,
              5815117.212107376
            ],
            [
              323580.7284067116,
              5815117.161579227
            ],
            [
              323580.41260578285,
              5815114.052577012
            ],
            [
              323579.91516542854,
              5815114.103105161
            ],
            [
              323580.2309663573,
              5815117.212107376
            ]
          ]
        ]
      }
    },
    {
      "type": "Feature",
      "properties": {
        "name": "House 18 hip 1 strip 4",
        "height": 4.52
      },
      "geometry": {
        "type": "Polygon",
        "coordinates": [
          [
            [
              323580.19938626443,
              5815116.901207155
            ],
            [
              323580.69682661875,
              5815116.8506790055
            ],
            [
              323580.4441858758,
              5815114.363477234
            ],
            [
              323579.9467455214,
              5815114.414005383
            ],
            [
              323580.19938626443,
              5815116.901207155
            ]
          ]
        ]
      }
    },
    {
      "type": "Feature",
      "properties": {
        "name": "House 18 hip 1 strip 5",
        "height": 4.7
      },
      "geometry": {
        "type": "Polygon",
        "coordinates": [
          [
            [
              323580.1678061716,
              5815116.590306933
            ],
            [
              323580.6652465259,
              5815116.539778784
            ],
            [
              323580.4757659687,
              5815114.674377455
            ],
            [
              323579.97832561424,
              5815114.7249056045
            ],
            [
              323580.1678061716,
              5815116.590306933
            ]
          ]
        ]
      }
    },
    {
      "type": "Feature",
      "properties": {
        "name": "House 18 hip 1 strip 6",
        "height": 4.88
      },
      "geometry": {
        "type": "Polygon",
        "coordinates": [
          [
            [
              323580.1362260787,
              5815116.279406711
            ],
            [
              323580.63366643304,
              5815116.228878562
            ],
            [
              323580.5073460615,
              5815114.985277677
            ],
            [
              323580.0099057071,
              5815115.035805826
            ],
            [
              323580.1362260787,
              5815116.279406711
            ]
          ]
        ]
      }
    },
    {
      "type": "Feature",
      "properties": {
        "name": "House 18 hip 1 strip 7",
        "height": 5.0600000000000005
      },
      "geometry": {
        "type": "Polygon",
        "coordinates": [
          [
            [
              323580.10464598564,
              5815115.96850649
            ],
            [
              323580.6020863401,
              5815115.917978341
            ],
            [
              323580.5389261544,
              5815115.2961778985
            ],
            [
              323580.04148579994,
              5815115.346706048
            ],
            [
              323580.10464598564,
              5815115.96850649
            ]
          ]
        ]
      }
    },
    {
      "type": "Feature",
      "properties": {
        "name": "House 18 hip 1 strip 8",
        "height": 5.24
      },
      "geometry": {
        "type": "Polygon",
        "coordinates": [
          [
            [
              323580.07811870775,
              5815115.707350304
            ],
            [
              323580.57555906207,
              5815115.656822155
            ],
            [
              323580.5654534324,
              5815115.557334084
            ],
            [
              323580.06801307807,
              5815115.607862233
            ],
            [
              323580.07811870775,
              5815115.707350304
            ]
          ]
        ]
      }
    },
    {
      "type": "Feature",
      "properties": {
        "name": "House 18 hip 2 strip 1",
        "height": 3.94
      },
      "geometry": {
        "type": "Polygon",
        "coordinates": [
          [
            [
              323580.7915668973,
              5815117.78337967
            ],
            [
              323581.28900725173,
              5815117.732851522
            ],
            [
              323580.8468859516,
              5815113.380248421
            ],
            [
              323580.34944559715,
              5815113.430776569
            ],
            [
              323580.7915668973,
              5815117.78337967
            ]
          ]
        ]
      }
    },
    {
      "type": "Feature",
      "properties": {
        "name": "House 18 hip 2 strip 2",
        "height": 4.08
      },
      "geometry": {
        "type": "Polygon",
        "coordinates": [
          [
            [
              323580.75998680445,
              5815117.472479449
            ],
            [
              323581.2574271589,
              5815117.4219513
            ],
            [
              323580.87846604444,
              5815113.691148642
            ],
            [
              323580.38102569,
              5815113.741676791
            ],
            [
              323580.75998680445,
              5815117.472479449
            ]
          ]
        ]
      }
    },
    {
      "type": "Feature",
      "properties": {
        "name": "House 18 hip 2 strip 3",
        "height": 4.22
      },
      "geometry": {
        "type": "Polygon",
        "coordinates": [
          [
            [
              323580.7284067116,
              5815117.161579227
            ],
            [
              323581.22584706603,
              5815117.111051079
            ],
            [
              323580.9100461373,
              5815114.002048864
            ],
            [
              323580.41260578285,
              5815114.052577012
            ],
            [
              323580.7284067116,
              5815117.161579227
            ]
          ]
        ]
      }
    },
    {
      "type": "Feature",
      "properties": {
        "name": "House 18 hip 2 strip 4",
        "height": 4.359999999999999
      },
      "geometry": {
        "type": "Polygon",
        "coordinates": [
          [
            [
              323580.69682661875,
              5815116.8506790055
            ],
            [
              323581.1942669732,
              5815116.800150857
            ],
            [
              323580.94162623025,
              5815114.312949086
            ],
            [
              323580.4441858758,
              5815114.363477234
            ],
            [
              323580.69682661875,
              5815116.8506790055
            ]
          ]
        ]
      }
    },
    {
      "type": "Feature",
      "properties": {
        "name": "House 18 hip 2 strip 5",
        "height": 4.5
      },
      "geometry": {
        "type": "Polygon",
        "coordinates": [
          [
            [
              323580.6652465259,
              5815116.539778784
            ],
            [
              323581.1626868803,
              5815116.489250636
            ],
            [
              323580.9732063231,
              5815114.623849307
            ],
            [
              323580.4757659687,
              5815114.674377455
            ],
            [
              323580.6652465259,
              5815116.539778784
            ]
          ]
        ]
      }
    },
    {
      "type": "Feature",
      "properties": {
        "name": "House 18 hip 2 strip 6",
        "height": 4.64
      },
      "geometry": {
        "type": "Polygon",
        "coordinates": [
          [
            [
              323580.63366643304,
              5815116.228878562
            ],
            [
              323581.1311067875,
              5815116.178350414
            ],
            [
              323581.00478641596,
              5815114.934749529
            ],
            [
              323580.5073460615,
              5815114.985277677
            ],
            [
              323580.63366643304,
              5815116.228878562
            ]
          ]
        ]
      }
    },
    {
      "type": "Feature",
      "properties": {
        "name": "House 18 hip 2 strip 7",
        "height": 4.78
      },
      "geometry": {
        "type": "Polygon",
        "coordinates": [
          [
            [
              323580.6020863401,
              5815115.917978341
            ],
            [
              323581.0995266945,
              5815115.867450193
            ],
            [
              323581.0363665088,
              5815115.24564975
            ],
            [
              323580.5389261544,
              5815115.2961778985
            ],
            [
              323580.6020863401,
              5815115.917978341
            ]
          ]
        ]
      }
    },
    {
      "type": "Feature",
      "properties": {
        "name": "House 18 hip 2 strip 8",
        "height": 4.92
      },
      "geometry": {
        "type": "Polygon",
        "coordinates": [
          [
            [
              323580.57555906207,
              5815115.656822155
            ],
            [
              323581.0729994165,
              5815115.606294007
            ],
            [
              323581.0628937868,
              5815115.506805936
            ],
            [
              323580.5654534324,
              5815115.557334084
            ],
            [
              323580.57555906207,
              5815115.656822155
            ]
          ]
        ]
      }
    },
    {
      "type": "Feature",
      "properties": {
        "name": "House 18 hip 3 strip 1",
        "height": 3.9
      },
      "geometry": {
        "type": "Polygon",
        "coordinates": [
          [
            [
              323581.28900725173,
              5815117.732851522
            ],
            [
              323581.78644760617,
              5815117.682323374
            ],
            [
              323581.344326306,
              5815113.329720273
            ],
            [
              323580.8468859516,
              5815113.380248421
            ],
            [
              323581.28900725173,
              5815117.732851522
            ]
          ]
        ]
      }
    },
    {
      "type": "Feature",
      "properties": {
        "name": "House 18 hip 3 strip 2",
        "height": 4.0
      },
      "geometry": {
        "type": "Polygon",
        "coordinates": [
          [
            [
              323581.2574271589,
              5815117.4219513
            ],
            [
              323581.7548675133,
              5815117.371423152
            ],
            [
              323581.37590639887,
              5815113.640620494
            ],
            [
              323580.87846604444,
              5815113.691148642
            ],
            [
              323581.2574271589,
              5815117.4219513
            ]
          ]
        ]
      }
    },
    {
      "type": "Feature",
      "properties": {
        "name": "House 18 hip 3 strip 3",
        "height": 4.1
      },
      "geometry": {
        "type": "Polygon",
        "coordinates": [
          [
            [
              323581.22584706603,
              5815117.111051079
            ],
            [
              323581.72328742046,
              5815117.060522931
            ],
            [
              323581.4074864917,
              5815113.951520716
            ],
            [
              323580.9100461373,
              5815114.002048864
            ],
            [
              323581.22584706603,
              5815117.111051079
            ]
          ]
        ]
      }
    },
    {
      "type": "Feature",
      "properties": {
        "name": "House 18 hip 3 strip 4",
        "height": 4.199999999999999
      },
      "geometry": {
        "type": "Polygon",
        "coordinates": [
          [
            [
              323581.1942669732,
              5815116.800150857
            ],
            [
              323581.6917073276,
              5815116.749622709
            ],
            [
              323581.4390665847,
              5815114.262420937
            ],
            [
              323580.94162623025,
              5815114.312949086
            ],
            [
              323581.1942669732,
              5815116.800150857
            ]
          ]
        ]
      }
    },
    {
      "type": "Feature",
      "properties": {
        "name": "House 18 hip 3 strip 5",
        "height": 4.3
      },
      "geometry": {
        "type": "Polygon",
        "coordinates": [
          [
            [
              323581.1626868803,
              5815116.489250636
            ],
            [
              323581.66012723476,
              5815116.438722488
            ],
            [
              323581.47064667754,
              5815114.573321159
            ],
            [
              323580.9732063231,
              5815114.623849307
            ],
            [
              323581.1626868803,
              5815116.489250636
            ]
          ]
        ]
      }
    },
    {
      "type": "Feature",
      "properties": {
        "name": "House 18 hip 3 strip 6",
        "height": 4.3999999999999995
      },
      "geometry": {
        "type": "Polygon",
        "coordinates": [
          [
            [
              323581.1311067875,
              5815116.178350414
            ],
            [
              323581.6285471419,
              5815116.127822266
            ],
            [
              323581.5022267704,
              5815114.884221381
            ],
            [
              323581.00478641596,
              5815114.934749529
            ],
            [
              323581.1311067875,
              5815116.178350414
            ]
          ]
        ]
      }
    },
    {
      "type": "Feature",
      "properties": {
        "name": "House 18 hip 3 strip 7",
        "height": 4.5
      },
      "geometry": {
        "type": "Polygon",
        "coordinates": [
          [
            [
              323581.0995266945,
              5815115.867450193
            ],
            [
              323581.59696704894,
              5815115.816922044
            ],
            [
              323581.53380686324,
              5815115.195121602
            ],
            [
              323581.0363665088,
              5815115.24564975
            ],
            [
              323581.0995266945,
              5815115.867450193
            ]
          ]
        ]
      }
    },
    {
      "type": "Feature",
      "properties": {
        "name": "House 18 hip 3 strip 8",
        "height": 4.6
      },
      "geometry": {
        "type": "Polygon",
        "coordinates": [
          [
            [
              323581.0729994165,
              5815115.606294007
            ],
            [
              323581.57043977093,
              5815115.555765859
            ],
            [
              323581.56033414125,
              5815115.456277788
            ],
            [
              323581.0628937868,
              5815115.506805936
            ],
            [
              323581.0729994165,
              5815115.606294007
            ]
          ]
        ]
      }
    },
    {
      "type": "Feature",
      "properties": {
        "name": "House 18 hip 4 strip 1",
        "height": 3.86
      },
      "geometry": {
        "type": "Polygon",
        "coordinates": [
          [
            [
              323581.78644760617,
              5815117.682323374
            ],
            [
              323582.2838879605,
              5815117.631795225
            ],
            [
              323581.84176666033,
              5815113.279192124
            ],
            [
              323581.344326306,
              5815113.329720273
            ],
            [
              323581.78644760617,
              5815117.682323374
            ]
          ]
        ]
      }
    },
    {
      "type": "Feature",
      "properties": {
        "name": "House 18 hip 4 strip 2",
        "height": 3.92
      },
      "geometry": {
        "type": "Polygon",
        "coordinates": [
          [
            [
              323581.7548675133,
              5815117.371423152
            ],
            [
              323582.25230786763,
              5815117.320895003
            ],
            [
              323581.8733467532,
              5815113.590092345
            ],
            [
              323581.37590639887,
              5815113.640620494
            ],
            [
              323581.7548675133,
              5815117.371423152
            ]
          ]
        ]
      }
    },
    {
      "type": "Feature",
      "properties": {
        "name": "House 18 hip 4 strip 3",
        "height": 3.98
      },
      "geometry": {
        "type": "Polygon",
        "coordinates": [
          [
            [
              323581.72328742046,
              5815117.060522931
            ],
            [
              323582.2207277748,
              5815117.009994782
            ],
            [
              323581.90492684604,
              5815113.900992567
            ],
            [
              323581.4074864917,
              5815113.951520716
            ],
            [
              323581.72328742046,
              5815117.060522931
            ]
          ]
        ]
      }
    },
    {
      "type": "Feature",
      "properties": {
        "name": "House 18 hip 4 strip 4",
        "height": 4.04
      },
      "geometry": {
        "type": "Polygon",
        "coordinates": [
          [
            [
              323581.6917073276,
              5815116.749622709
            ],
            [
              323582.18914768193,
              5815116.69909456
            ],
            [
              323581.9365069391,
              5815114.211892788
            ],
            [
              323581.4390665847,
              5815114.262420937
            ],
            [
              323581.6917073276,
              5815116.749622709
            ]
          ]
        ]
      }
    },
    {
      "type": "Feature",
      "properties": {
        "name": "House 18 hip 4 strip 5",
        "height": 4.1
      },
      "geometry": {
        "type": "Polygon",
        "coordinates": [
          [
            [
              323581.66012723476,
              5815116.438722488
            ],
            [
              323582.1575675891,
              5815116.388194338
            ],
            [
              323581.968087032,
              5815114.52279301
            ],
            [
              323581.47064667754,
              5815114.573321159
            ],
            [
              323581.66012723476,
              5815116.438722488
            ]
          ]
        ]
      }
    },
    {
      "type": "Feature",
      "properties": {
        "name": "House 18 hip 4 strip 6",
        "height": 4.16
      },
      "geometry": {
        "type": "Polygon",
        "coordinates": [
          [
            [
              323581.6285471419,
              5815116.127822266
            ],
            [
              323582.1259874962,
              5815116.077294117
            ],
            [
              323581.9996671248,
              5815114.833693231
            ],
            [
              323581.5022267704,
              5815114.884221381
            ],
            [
              323581.6285471419,
              5815116.127822266
            ]
          ]
        ]
      }
    },
    {
      "type": "Feature",
      "properties": {
        "name": "House 18 hip 4 strip 7",
        "height": 4.220000000000001
      },
      "geometry": {
        "type": "Polygon",
        "coordinates": [
          [
            [
              323581.59696704894,
              5815115.816922044
            ],
            [
              323582.0944074034,
              5815115.766393895
            ],
            [
              323582.0312472177,
              5815115.144593453
            ],
            [
              323581.53380686324,
              5815115.195121602
            ],
            [
              323581.59696704894,
              5815115.816922044
            ]
          ]
        ]
      }
    },
    {
      "type": "Feature",
      "properties": {
        "name": "House 18 hip 4 strip 8",
        "height": 4.28
      },
      "geometry": {
        "type": "Polygon",
        "coordinates": [
          [
            [
              323581.57043977093,
              5815115.555765859
            ],
            [
              323582.06788012525,
              5815115.50523771
            ],
            [
              323582.05777449557,
              5815115.405749639
            ],
            [
              323581.56033414125,
              5815115.456277788
            ],
            [
              323581.57043977093,
              5815115.555765859
            ]
          ]
        ]
      }
    },
    {
      "type": "Feature",
      "properties": {
        "name": "House 18 hip 5 strip 1",
        "height": 3.82
      },
      "geometry": {
        "type": "Polygon",
        "coordinates": [
          [
            [
              323582.2838879605,
              5815117.631795225
            ],
            [
              323582.7813283149,
              5815117.581267077
            ],
            [
              323582.33920701477,
              5815113.228663975
            ],
            [
              323581.84176666033,
              5815113.279192124
            ],
            [
              323582.2838879605,
              5815117.631795225
            ]
          ]
        ]
      }
    },
    {
      "type": "Feature",
      "properties": {
        "name": "House 18 hip 5 strip 2",
        "height": 3.84
      },
      "geometry": {
        "type": "Polygon",
        "coordinates": [
          [
            [
              323582.25230786763,
              5815117.320895003
            ],
            [
              323582.74974822206,
              5815117.270366855
            ],
            [
              323582.3707871076,
              5815113.539564197
            ],
            [
              323581.8733467532,
              5815113.590092345
            ],
            [
              323582.25230786763,
              5815117.320895003
            ]
          ]
        ]
      }
    },
    {
      "type": "Feature",
      "properties": {
        "name": "House 18 hip 5 strip 3",
        "height": 3.86
      },
      "geometry": {
        "type": "Polygon",
        "coordinates": [
          [
            [
              323582.2207277748,
              5815117.009994782
            ],
            [
              323582.7181681292,
              5815116.959466633
            ],
            [
              323582.40236720047,
              5815113.8504644185
            ],
            [
              323581.90492684604,
              5815113.900992567
            ],
            [
              323582.2207277748,
              5815117.009994782
            ]
          ]
        ]
      }
    },
    {
      "type": "Feature",
      "properties": {
        "name": "House 18 hip 5 strip 4",
        "height": 3.88
      },
      "geometry": {
        "type": "Polygon",
        "coordinates": [
          [
            [
              323582.18914768193,
              5815116.69909456
            ],
            [
              323582.68658803636,
              5815116.648566412
            ],
            [
              323582.43394729355,
              5815114.16136464
            ],
            [
              323581.9365069391,
              5815114.211892788
            ],
            [
              323582.18914768193,
              5815116.69909456
            ]
          ]
        ]
      }
    },
    {
      "type": "Feature",
      "properties": {
        "name": "House 18 hip 5 strip 5",
        "height": 3.9
      },
      "geometry": {
        "type": "Polygon",
        "coordinates": [
          [
            [
              323582.1575675891,
              5815116.388194338
            ],
            [
              323582.6550079435,
              5815116.33766619
            ],
            [
              323582.4655273864,
              5815114.472264862
            ],
            [
              323581.968087032,
              5815114.52279301
            ],
            [
              323582.1575675891,
              5815116.388194338
            ]
          ]
        ]
      }
    },
    {
      "type": "Feature",
      "properties": {
        "name": "House 18 hip 5 strip 6",
        "height": 3.92
      },
      "geometry": {
        "type": "Polygon",
        "coordinates": [
          [
            [
              323582.1259874962,
              5815116.077294117
            ],
            [
              323582.62342785066,
              5815116.026765969
            ],
            [
              323582.49710747926,
              5815114.783165083
            ],
            [
              323581.9996671248,
              5815114.833693231
            ],
            [
              323582.1259874962,
              5815116.077294117
            ]
          ]
        ]
      }
    },
    {
      "type": "Feature",
      "properties": {
        "name": "House 18 hip 5 strip 7",
        "height": 3.94
      },
      "geometry": {
        "type": "Polygon",
        "coordinates": [
          [
            [
              323582.0944074034,
              5815115.766393895
            ],
            [
              323582.5918477578,
              5815115.715865747
            ],
            [
              323582.5286875721,
              5815115.094065305
            ],
            [
              323582.0312472177,
              5815115.144593453
            ],
            [
              323582.0944074034,
              5815115.766393895
            ]
          ]
        ]
      }
    },
    {
      "type": "Feature",
      "properties": {
        "name": "House 18 hip 5 strip 8",
        "height": 3.96
      },
      "geometry": {
        "type": "Polygon",
        "coordinates": [
          [
            [
              323582.06788012525,
              5815115.50523771
            ],
            [
              323582.5653204797,
              5815115.454709562
            ],
            [
              323582.55521485,
              5815115.35522149
            ],
            [
              323582.05777449557,
              5815115.405749639
            ],
            [
              323582.06788012525,
              5815115.50523771
            ]
          ]
        ]
      }
    }
  ]
}