{
  "type": "FeatureCollection",
  "features": [
    {
      "type": "Feature",
      "properties": {
        "name": "House 20 veranda strip 4",
        "height": 3.3
      },
      "geometry": {
        "type": "Polygon",
        "coordinates": [
          [
            [
              144.99618434747453,
              -37.79422962602373
            ],
            [
              144.9961885731752,
              -37.79423003943566
            ],
            [
              144.9961816269018,
              -37.79427474973195
            ],
            [
              144.99617740119865,
              -37.7942743363197
            ],
            [
              144.99618434747453,
              -37.79422962602373
            ]
          ]
        ]
      }
    },
    {
      "type": "Feature",
      "properties": {
        "name": "House 20 veranda strip 3",
        "height": 3.2
      },
      "geometry": {
        "type": "Polygon",
        "coordinates": [
          [
            [
              144.9961801217739,
              -37.79422921261166
            ],
            [
              144.99618434747453,
              -37.79422962602373
            ],
            [
              144.99617740119865,
              -37.7942743363197
            ],
            [
              144.99617317549556,
              -37.794273922907315
            ],
            [
              144.9961801217739,
              -37.79422921261166
            ]
          ]
        ]
      }
    },
    {
      "type": "Feature",
      "properties": {
        "name": "House 20 veranda strip 2",
        "height": 3.1
      },
      "geometry": {
        "type": "Polygon",
        "coordinates": [
          [
            [
              144.99617589607334,
              -37.79422879919944
            ],
            [
              144.9961801217739,
              -37.79422921261166
            ],
            [
              144.99617317549556,
              -37.794273922907315
            ],
            [
              144.99616894979252,
              -37.79427350949478
            ],
            [
              144.99617589607334,
              -37.79422879919944
            ]
          ]
        ]
      }
    },
    {
      "type": "Feature",
      "properties": {
        "name": "House 20 veranda strip 1",
        "height": 3.0
      },
      "geometry": {
        "type": "Polygon",
        "coordinates": [
          [
            [
              144.99617167037283,
              -37.79422838578707
            ],
            [
              144.99617589607334,
              -37.79422879919944
            ],
            [
              144.99616894979252,
              -37.79427350949478
            ],
            [
              144.99616472408948,
              -37.794273096082094
            ],
            [
              144.99617167037283,
              -37.79422838578707
            ]
          ]
        ]
      }
    },
    {
      "type": "Feature",
      "properties": {
        "name": "House 20 main body",
        "height": 3.8
      },
      "geometry": {
        "type": "Polygon",
        "coordinates": [
          [
            [
              144.9961885731752,
              -37.79423003943566
            ],
            [
              144.9963254859061,
              -37.794243433900576
            ],
            [
              144.99631853971334,
              -37.79428814420716
            ],
            [
              144.9961816269018,
              -37.79427474973195
            ],
            [
              144.9961885731752,
              -37.79423003943566
            ]
          ]
        ]
      }
    },
    {
      "type": "Feature",
      "properties": {
        "name": "House 20 north wall",
        "height": 4.4
      },
      "geometry": {
        "type": "Polygon",
        "coordinates": [
          [
            [
              144.9961885731752,
              -37.79423003943566
            ],
            [
              144.9963254859061,
              -37.794243433900576
            ],
            [
              144.9963251385967,
              -37.79424566941592
            ],
            [
              144.99618822586174,
              -37.79423227495049
            ],
            [
              144.9961885731752,
              -37.79423003943566
            ]
          ]
        ]
      }
    },
    {
      "type": "Feature",
      "properties": {
        "name": "House 20 south wall",
        "height": 4.4
      },
      "geometry": {
        "type": "Polygon",
        "coordinates": [
          [
            [
              144.99618183529017,
              -37.79427340842307
            ],
            [
              144.99631874809927,
              -37.79428680289797
            ],
            [
              144.99631853971334,
              -37.79428814420716
            ],
            [
              144.9961816269018,
              -37.79427474973195
            ],
            [
              144.99618183529017,
              -37.79427340842307
            ]
          ]
        ]
      }
    },
    {
      "type": "Feature",
      "properties": {
        "name": "House 20 gable strip 1",
        "height": 4.0
      },
      "geometry": {
        "type": "Polygon",
        "coordinates": [
          [
            [
              144.9961881390334,
              -37.794232833829206
            ],
            [
              144.99629688041986,
              -37.79424347224479
            ],
            [
              144.9962908024867,
              -37.79428259376118
            ],
            [
              144.99618206104418,
              -37.79427195533846
            ],
            [
              144.9961881390334,
              -37.794232833829206
            ]
          ]
        ]
      }
    },
    {
      "type": "Feature",
      "properties": {
        "name": "House 20 gable strip 2",
        "height": 4.2
      },
      "geometry": {
        "type": "Polygon",
        "coordinates": [
          [
            [
              144.99618770489155,
              -37.794235628222744
            ],
            [
              144.99629644628206,
              -37.79424626663885
            ],
            [
              144.99629123662504,
              -37.79427979936719
            ],
            [
              144.99618249518653,
              -37.79426916094496
            ],
            [
              144.99618770489155,
              -37.794235628222744
            ]
          ]
        ]
      }
    },
    {
      "type": "Feature",
      "properties": {
        "name": "House 20 gable strip 3",
        "height": 4.4
      },
      "geometry": {
        "type": "Polygon",
        "coordinates": [
          [
            [
              144.99618727074966,
              -37.79423842261628
            ],
            [
              144.99629601214417,
              -37.79424906103289
            ],
            [
              144.9962916707633,
              -37.794277004973175
            ],
            [
              144.9961829293288,
              -37.79426636655146
            ],
            [
              144.99618727074966,
              -37.79423842261628
            ]
          ]
        ]
      }
    },
    {
      "type": "Feature",
      "properties": {
        "name": "House 20 gable strip 4",
        "height": 4.6
      },
      "geometry": {
        "type": "Polygon",
        "coordinates": [
          [
            [
              144.99618683660776,
              -37.79424121700982
            ],
            [
              144.99629557800625,
              -37.794251855426936
            ],
            [
              144.99629210490158,
              -37.79427421057916
            ],
            [
              144.99618336347106,
              -37.794263572157966
            ],
            [
              144.99618683660776,
              -37.79424121700982
            ]
          ]
        ]
      }
    },
    {
      "type": "Feature",
      "properties": {
        "name": "House 20 gable strip 5",
        "height": 4.800000000000001
      },
      "geometry": {
        "type": "Polygon",
        "coordinates": [
          [
            [
              144.99618640246578,
              -37.79424401140336
            ],
            [
              144.99629514386828,
              -37.794254649820985
            ],
            [
              144.99629253903979,
              -37.794271416185154
            ],
            [
              144.99618379761327,
              -37.79426077776446
            ],
            [
              144.99618640246578,
              -37.79424401140336
            ]
          ]
        ]
      }
    },
    {
      "type": "Feature",
      "properties": {
        "name": "House 20 gable strip 6",
        "height": 5.0
      },
      "geometry": {
        "type": "Polygon",
        "coordinates": [
          [
            [
              144.9961859683238,
              -37.794246805796895
            ],
            [
              144.9962947097303,
              -37.79425744421501
            ],
            [
              144.99629297317796,
              -37.79426862179114
            ],
            [
              144.99618423175545,
              -37.794257983370954
            ],
            [
              144.9961859683238,
              -37.794246805796895
            ]
          ]
        ]
      }
    },
    {
      "type": "Feature",
      "properties": {
        "name": "House 20 gable strip 7",
        "height": 5.2
      },
      "geometry": {
        "type": "Polygon",
        "coordinates": [
          [
            [
              144.9961855341818,
              -37.794249600190405
            ],
            [
              144.99629427559228,
              -37.79426023860906
            ],
            [
              144.9962934073161,
              -37.79426582739712
            ],
            [
              144.9961846658976,
              -37.794255188977445
            ],
            [
              144.9961855341818,
              -37.794249600190405
            ]
          ]
        ]
      }
    },
    {
      "type": "Feature",
      "properties": {
        "name": "House 20 gable strip 8",
        "height": 5.4
      },
      "geometry": {
        "type": "Polygon",
        "coordinates": [
          [
            [
              144.99618516950244,
              -37.794251947480966
            ],
            [
              144.99629391091628,
              -37.79426258590005
            ],
            [
              144.9962937719921,
              -37.79426348010613
            ],
            [
              144.99618503057698,
              -37.794252841686884
            ],
            [
              144.99618516950244,
              -37.794251947480966
            ]
          ]
        ]
      }
    },
    {
      "type": "Feature",
      "properties": {
        "name": "House 20 hip 1 strip 1",
        "height": 3.98
      },
      "geometry": {
        "type": "Polygon",
        "coordinates": [
          [
            [
              144.99629688041986,
              -37.79424347224479
            ],
            [
              144.9963025146896,
              -37.79424402345532
            ],
            [
              144.99629643675928,
              -37.7942831449721
            ],
            [
              144.9962908024867,
              -37.79428259376118
            ],
            [
              144.99629688041986,
              -37.79424347224479
            ]
          ]
        ]
      }
    },
    {
      "type": "Feature",
      "properties": {
        "name": "House 20 hip 1 strip 2",
        "height": 4.16
      },
      "geometry": {
        "type": "Polygon",
        "coordinates": [
          [
            [
              144.99629644628206,
              -37.79424626663885
            ],
            [
              144.99630208055194,
              -37.7942468178494
            ],
            [
              144.99629687089742,
              -37.79428035057806
            ],
            [
              144.99629123662504,
              -37.79427979936719
            ],
            [
              144.99629644628206,
              -37.79424626663885
            ]
          ]
        ]
      }
    },
    {
      "type": "Feature",
      "properties": {
        "name": "House 20 hip 1 strip 3",
        "height": 4.34
      },
      "geometry": {
        "type": "Polygon",
        "coordinates": [
          [
            [
              144.99629601214417,
              -37.79424906103289
            ],
            [
              144.99630164641428,
              -37.794249612243476
            ],
            [
              144.9962973050355,
              -37.79427755618403
            ],
            [
              144.9962916707633,
              -37.794277004973175
            ],
            [
              144.99629601214417,
              -37.79424906103289
            ]
          ]
        ]
      }
    },
    {
      "type": "Feature",
      "properties": {
        "name": "House 20 hip 1 strip 4",
        "height": 4.52
      },
      "geometry": {
        "type": "Polygon",
        "coordinates": [
          [
            [
              144.99629557800625,
              -37.794251855426936
            ],
            [
              144.99630121227656,
              -37.79425240663756
            ],
            [
              144.99629773917354,
              -37.79427476178999
            ],
            [
              144.99629210490158,
              -37.79427421057916
            ],
            [
              144.99629557800625,
              -37.794251855426936
            ]
          ]
        ]
      }
    },
    {
      "type": "Feature",
      "properties": {
        "name": "House 20 hip 1 strip 5",
        "height": 4.7
      },
      "geometry": {
        "type": "Polygon",
        "coordinates": [
          [
            [
              144.99629514386828,
              -37.794254649820985
            ],
            [
              144.99630077813882,
              -37.794255201031625
            ],
            [
              144.99629817331157,
              -37.794271967395964
            ],
            [
              144.99629253903979,
              -37.794271416185154
            ],
            [
              144.99629514386828,
              -37.794254649820985
            ]
          ]
        ]
      }
    },
    {
      "type": "Feature",
      "properties": {
        "name": "House 20 hip 1 strip 6",
        "height": 4.88
      },
      "geometry": {
        "type": "Polygon",
        "coordinates": [
          [
            [
              144.9962947097303,
              -37.79425744421501
            ],
            [
              144.99630034400104,
              -37.79425799542569
            ],
            [
              144.99629860744955,
              -37.7942691730019
            ],
            [
              144.99629297317796,
              -37.79426862179114
            ],
            [
              144.9962947097303,
              -37.79425744421501
            ]
          ]
        ]
      }
    },
    {
      "type": "Feature",
      "properties": {
        "name": "House 20 hip 1 strip 7",
        "height": 5.0600000000000005
      },
      "geometry": {
        "type": "Polygon",
        "coordinates": [
          [
            [
              144.99629427559228,
              -37.79426023860906
            ],
            [
              144.9962999098632,
              -37.794260789819745
            ],
            [
              144.99629904158746,
              -37.79426637860786
            ],
            [
              144.9962934073161,
              -37.79426582739712
            ],
            [
              144.99629427559228,
              -37.79426023860906
            ]
          ]
        ]
      }
    },
    {
      "type": "Feature",
      "properties": {
        "name": "House 20 hip 1 strip 8",
        "height": 5.24
      },
      "geometry": {
        "type": "Polygon",
        "coordinates": [
          [
            [
              144.99629391091628,
              -37.79426258590005
            ],
            [
              144.9962995451874,
              -37.794263137110754
            ],
            [
              144.9962994062633,
              -37.794264031316864
            ],
            [
              144.9962937719921,
              -37.79426348010613
            ],
            [
              144.99629391091628,
              -37.79426258590005
            ]
          ]
        ]
      }
    },
    {
      "type": "Feature",
      "properties": {
        "name": "House 20 hip 2 strip 1",
        "height": 3.94
      },
      "geometry": {
        "type": "Polygon",
        "coordinates": [
          [
            [
              144.9963025146896,
              -37.79424402345532
            ],
            [
              144.9963081489594,
              -37.79424457466559
            ],
            [
              144.99630207103198,
              -37.794283696182724
            ],
            [
              144.99629643675928,
              -37.7942831449721
            ],
            [
              144.9963025146896,
              -37.79424402345532
            ]
          ]
        ]
      }
    },
    {
      "type": "Feature",
      "properties": {
        "name": "House 20 hip 2 strip 2",
        "height": 4.08
      },
      "geometry": {
        "type": "Polygon",
        "coordinates": [
          [
            [
              144.99630208055194,
              -37.7942468178494
            ],
            [
              144.99630771482197,
              -37.79424736905969
            ],
            [
              144.99630250516992,
              -37.79428090178866
            ],
            [
              144.99629687089742,
              -37.79428035057806
            ],
            [
              144.99630208055194,
              -37.7942468178494
            ]
          ]
        ]
      }
    },
    {
      "type": "Feature",
      "properties": {
        "name": "House 20 hip 2 strip 3",
        "height": 4.22
      },
      "geometry": {
        "type": "Polygon",
        "coordinates": [
          [
            [
              144.99630164641428,
              -37.794249612243476
            ],
            [
              144.9963072806845,
              -37.794250163453796
            ],
            [
              144.99630293930778,
              -37.794278107394604
            ],
            [
              144.9962973050355,
              -37.79427755618403
            ],
            [
              144.99630164641428,
              -37.794249612243476
            ]
          ]
        ]
      }
    },
    {
      "type": "Feature",
      "properties": {
        "name": "House 20 hip 2 strip 4",
        "height": 4.359999999999999
      },
      "geometry": {
        "type": "Polygon",
        "coordinates": [
          [
            [
              144.99630121227656,
              -37.79425240663756
            ],
            [
              144.996306846547,
              -37.7942529578479
            ],
            [
              144.9963033734456,
              -37.79427531300055
            ],
            [
              144.99629773917354,
              -37.79427476178999
            ],
            [
              144.99630121227656,
              -37.79425240663756
            ]
          ]
        ]
      }
    },
    {
      "type": "Feature",
      "properties": {
        "name": "House 20 hip 2 strip 5",
        "height": 4.5
      },
      "geometry": {
        "type": "Polygon",
        "coordinates": [
          [
            [
              144.99630077813882,
              -37.794255201031625
            ],
            [
              144.99630641240947,
              -37.79425575224199
            ],
            [
              144.99630380758342,
              -37.79427251860648
            ],
            [
              144.99629817331157,
              -37.794271967395964
            ],
            [
              144.99630077813882,
              -37.794255201031625
            ]
          ]
        ]
      }
    },
    {
      "type": "Feature",
      "properties": {
        "name": "House 20 hip 2 strip 6",
        "height": 4.64
      },
      "geometry": {
        "type": "Polygon",
        "coordinates": [
          [
            [
              144.99630034400104,
              -37.79425799542569
            ],
            [
              144.99630597827186,
              -37.79425854663607
            ],
            [
              144.9963042417212,
              -37.79426972421241
            ],
            [
              144.99629860744955,
              -37.7942691730019
            ],
            [
              144.99630034400104,
              -37.79425799542569
            ]
          ]
        ]
      }
    },
    {
      "type": "Feature",
      "properties": {
        "name": "House 20 hip 2 strip 7",
        "height": 4.78
      },
      "geometry": {
        "type": "Polygon",
        "coordinates": [
          [
            [
              144.9962999098632,
              -37.794260789819745
            ],
            [
              144.99630554413426,
              -37.794261341030165
            ],
            [
              144.9963046758589,
              -37.79426692981833
            ],
            [
              144.99629904158746,
              -37.79426637860786
            ],
            [
              144.9962999098632,
              -37.794260789819745
            ]
          ]
        ]
      }
    },
    {
      "type": "Feature",
      "properties": {
        "name": "House 20 hip 2 strip 8",
        "height": 4.92
      },
      "geometry": {
        "type": "Polygon",
        "coordinates": [
          [
            [
              144.9962995451874,
              -37.794263137110754
            ],
            [
              144.99630517945863,
              -37.7942636883212
            ],
            [
              144.99630504053457,
              -37.794264582527305
            ],
            [
              144.9962994062633,
              -37.794264031316864
            ],
            [
              144.9962995451874,
              -37.794263137110754
            ]
          ]
        ]
      }
    },
    {
      "type": "Feature",
      "properties": {
        "name": "House 20 hip 3 strip 1",
        "height": 3.9
      },
      "geometry": {
        "type": "Polygon",
        "coordinates": [
          [
            [
              144.9963081489594,
              -37.79424457466559
            ],
            [
              144.99631378322928,
              -37.79424512587557
            ],
            [
              144.9963077053048,
              -37.794284247393094
            ],
            [
              144.99630207103198,
              -37.794283696182724
            ],
            [
              144.9963081489594,
              -37.79424457466559
            ]
          ]
        ]
      }
    },
    {
      "type": "Feature",
      "properties": {
        "name": "House 20 hip 3 strip 2",
        "height": 4.0
      },
      "geometry": {
        "type": "Polygon",
        "coordinates": [
          [
            [
              144.99630771482197,
              -37.79424736905969
            ],
            [
              144.99631334909208,
              -37.794247920269704
            ],
            [
              144.99630813944248,
              -37.794281452999
            ],
            [
              144.99630250516992,
              -37.79428090178866
            ],
            [
              144.99630771482197,
              -37.79424736905969
            ]
          ]
        ]
      }
    },
    {
      "type": "Feature",
      "properties": {
        "name": "House 20 hip 3 strip 3",
        "height": 4.1
      },
      "geometry": {
        "type": "Polygon",
        "coordinates": [
          [
            [
              144.9963072806845,
              -37.794250163453796
            ],
            [
              144.9963129149548,
              -37.79425071466383
            ],
            [
              144.99630857358017,
              -37.79427865860492
            ],
            [
              144.99630293930778,
              -37.794278107394604
            ],
            [
              144.9963072806845,
              -37.794250163453796
            ]
          ]
        ]
      }
    },
    {
      "type": "Feature",
      "properties": {
        "name": "House 20 hip 3 strip 4",
        "height": 4.199999999999999
      },
      "geometry": {
        "type": "Polygon",
        "coordinates": [
          [
            [
              144.996306846547,
              -37.7942529578479
            ],
            [
              144.99631248081752,
              -37.79425350905796
            ],
            [
              144.9963090077178,
              -37.794275864210825
            ],
            [
              144.9963033734456,
              -37.79427531300055
            ],
            [
              144.996306846547,
              -37.7942529578479
            ]
          ]
        ]
      }
    },
    {
      "type": "Feature",
      "properties": {
        "name": "House 20 hip 3 strip 5",
        "height": 4.3
      },
      "geometry": {
        "type": "Polygon",
        "coordinates": [
          [
            [
              144.99630641240947,
              -37.79425575224199
            ],
            [
              144.99631204668017,
              -37.79425630345209
            ],
            [
              144.9963094418554,
              -37.79427306981673
            ],
            [
              144.99630380758342,
              -37.79427251860648
            ],
            [
              144.99630641240947,
              -37.79425575224199
            ]
          ]
        ]
      }
    },
    {
      "type": "Feature",
      "properties": {
        "name": "House 20 hip 3 strip 6",
        "height": 4.3999999999999995
      },
      "geometry": {
        "type": "Polygon",
        "coordinates": [
          [
            [
              144.99630597827186,
              -37.79425854663607
            ],
            [
              144.9963116125428,
              -37.79425909784621
            ],
            [
              144.99630987599295,
              -37.79427027542264
            ],
            [
              144.9963042417212,
              -37.79426972421241
            ],
            [
              144.99630597827186,
              -37.79425854663607
            ]
          ]
        ]
      }
    },
    {
      "type": "Feature",
      "properties": {
        "name": "House 20 hip 3 strip 7",
        "height": 4.5
      },
      "geometry": {
        "type": "Polygon",
        "coordinates": [
          [
            [
              144.99630554413426,
              -37.794261341030165
            ],
            [
              144.9963111784054,
              -37.79426189224032
            ],
            [
              144.99631031013047,
              -37.794267481028534
            ],
            [
              144.9963046758589,
              -37.79426692981833
            ],
            [
              144.99630554413426,
              -37.794261341030165
            ]
          ]
        ]
      }
    },
    {
      "type": "Feature",
      "properties": {
        "name": "House 20 hip 3 strip 8",
        "height": 4.6
      },
      "geometry": {
        "type": "Polygon",
        "coordinates": [
          [
            [
              144.99630517945863,
              -37.7942636883212
            ],
            [
              144.99631081372996,
              -37.79426423953137
            ],
            [
              144.99631067480595,
              -37.79426513373749
            ],
            [
              144.99630504053457,
              -37.794264582527305
            ],
            [
              144.99630517945863,
              -37.7942636883212
            ]
          ]
        ]
      }
    },
    {
      "type": "Feature",
      "properties": {
        "name": "House 20 hip 4 strip 1",
        "height": 3.86
      },
      "geometry": {
        "type": "Polygon",
        "coordinates": [
          [
            [
              144.99631378322928,
              -37.79424512587557
            ],
            [
              144.99631941749925,
              -37.7942456770853
            ],
            [
              144.99631333957768,
              -37.79428479860319
            ],
            [
              144.9963077053048,
              -37.794284247393094
            ],
            [
              144.99631378322928,
              -37.79424512587557
            ]
          ]
        ]
      }
    },
    {
      "type": "Feature",
      "properties": {
        "name": "House 20 hip 4 strip 2",
        "height": 3.92
      },
      "geometry": {
        "type": "Polygon",
        "coordinates": [
          [
            [
              144.99631334909208,
              -37.794247920269704
            ],
            [
              144.99631898336224,
              -37.79424847147947
            ],
            [
              144.99631377371517,
              -37.79428200420908
            ],
            [
              144.99630813944248,
              -37.794281452999
            ],
            [
              144.99631334909208,
              -37.794247920269704
            ]
          ]
        ]
      }
    },
    {
      "type": "Feature",
      "properties": {
        "name": "House 20 hip 4 strip 3",
        "height": 3.98
      },
      "geometry": {
        "type": "Polygon",
        "coordinates": [
          [
            [
              144.9963129149548,
              -37.79425071466383
            ],
            [
              144.9963185492252,
              -37.79425126587361
            ],
            [
              144.99631420785266,
              -37.79427920981497
            ],
            [
              144.99630857358017,
              -37.79427865860492
            ],
            [
              144.9963129149548,
              -37.79425071466383
            ]
          ]
        ]
      }
    },
    {
      "type": "Feature",
      "properties": {
        "name": "House 20 hip 4 strip 4",
        "height": 4.04
      },
      "geometry": {
        "type": "Polygon",
        "coordinates": [
          [
            [
              144.99631248081752,
              -37.79425350905796
            ],
            [
              144.99631811508812,
              -37.79425406026778
            ],
            [
              144.99631464199007,
              -37.794276415420846
            ],
            [
              144.9963090077178,
              -37.794275864210825
            ],
            [
              144.99631248081752,
              -37.79425350905796
            ]
          ]
        ]
      }
    },
    {
      "type": "Feature",
      "properties": {
        "name": "House 20 hip 4 strip 5",
        "height": 4.1
      },
      "geometry": {
        "type": "Polygon",
        "coordinates": [
          [
            [
              144.99631204668017,
              -37.79425630345209
            ],
            [
              144.996317680951,
              -37.79425685466192
            ],
            [
              144.99631507612747,
              -37.79427362102673
            ],
            [
              144.9963094418554,
              -37.79427306981673
            ],
            [
              144.99631204668017,
              -37.79425630345209
            ]
          ]
        ]
      }
    },
    {
      "type": "Feature",
      "properties": {
        "name": "House 20 hip 4 strip 6",
        "height": 4.16
      },
      "geometry": {
        "type": "Polygon",
        "coordinates": [
          [
            [
              144.9963116125428,
              -37.79425909784621
            ],
            [
              144.99631724681382,
              -37.794259649056066
            ],
            [
              144.9963155102648,
              -37.79427082663261
            ],
            [
              144.99630987599295,
              -37.79427027542264
            ],
            [
              144.9963116125428,
              -37.79425909784621
            ]
          ]
        ]
      }
    },
    {
      "type": "Feature",
      "properties": {
        "name": "House 20 hip 4 strip 7",
        "height": 4.220000000000001
      },
      "geometry": {
        "type": "Polygon",
        "coordinates": [
          [
            [
              144.9963111784054,
              -37.79426189224032
            ],
            [
              144.99631681267664,
              -37.79426244345021
            ],
            [
              144.9963159444021,
              -37.794268032238485
            ],
            [
              144.99631031013047,
              -37.794267481028534
            ],
            [
              144.9963111784054,
              -37.79426189224032
            ]
          ]
        ]
      }
    },
    {
      "type": "Feature",
      "properties": {
        "name": "House 20 hip 4 strip 8",
        "height": 4.28
      },
      "geometry": {
        "type": "Polygon",
        "coordinates": [
          [
            [
              144.99631081372996,
              -37.79426423953137
            ],
            [
              144.99631644800135,
              -37.79426479074128
            ],
            [
              144.99631630907743,
              -37.794265684947405
            ],
            [
              144.99631067480595,
              -37.79426513373749
            ],
            [
              144.99631081372996,
              -37.79426423953137
            ]
          ]
        ]
      }
    },
    {
      "type": "Feature",
      "properties": {
        "name": "House 20 hip 5 strip 1",
        "height": 3.82
      },
      "geometry": {
        "type": "Polygon",
        "coordinates": [
          [
            [
              144.99631941749925,
              -37.7942456770853
            ],
            [
              144.99632505176936,
              -37.79424622829476
            ],
            [
              144.99631897385066,
              -37.794285349813016
            ],
            [
              144.99631333957768,
              -37.79428479860319
            ],
            [
              144.99631941749925,
              -37.7942456770853
            ]
          ]
        ]
      }
    },
    {
      "type": "Feature",
      "properties": {
        "name": "House 20 hip 5 strip 2",
        "height": 3.84
      },
      "geometry": {
        "type": "Polygon",
        "coordinates": [
          [
            [
              144.99631898336224,
              -37.79424847147947
            ],
            [
              144.99632461763255,
              -37.79424902268895
            ],
            [
              144.99631940798795,
              -37.794282555418874
            ],
            [
              144.99631377371517,
              -37.79428200420908
            ],
            [
              144.99631898336224,
              -37.79424847147947
            ]
          ]
        ]
      }
    },
    {
      "type": "Feature",
      "properties": {
        "name": "House 20 hip 5 strip 3",
        "height": 3.86
      },
      "geometry": {
        "type": "Polygon",
        "coordinates": [
          [
            [
              144.9963185492252,
              -37.79425126587361
            ],
            [
              144.9963241834957,
              -37.794251817083136
            ],
            [
              144.99631984212522,
              -37.79427976102473
            ],
            [
              144.99631420785266,
              -37.79427920981497
            ],
            [
              144.9963185492252,
              -37.79425126587361
            ]
          ]
        ]
      }
    },
    {
      "type": "Feature",
      "properties": {
        "name": "House 20 hip 5 strip 4",
        "height": 3.88
      },
      "geometry": {
        "type": "Polygon",
        "coordinates": [
          [
            [
              144.99631811508812,
              -37.79425406026778
            ],
            [
              144.99632374935882,
              -37.79425461147731
            ],
            [
              144.99632027626242,
              -37.79427696663059
            ],
            [
              144.99631464199007,
              -37.794276415420846
            ],
            [
              144.99631811508812,
              -37.79425406026778
            ]
          ]
        ]
      }
    },
    {
      "type": "Feature",
      "properties": {
        "name": "House 20 hip 5 strip 5",
        "height": 3.9
      },
      "geometry": {
        "type": "Polygon",
        "coordinates": [
          [
            [
              144.996317680951,
              -37.79425685466192
            ],
            [
              144.9963233152219,
              -37.794257405871484
            ],
            [
              144.9963207103996,
              -37.79427417223645
            ],
            [
              144.99631507612747,
              -37.79427362102673
            ],
            [
              144.996317680951,
              -37.79425685466192
            ]
          ]
        ]
      }
    },
    {
      "type": "Feature",
      "properties": {
        "name": "House 20 hip 5 strip 6",
        "height": 3.92
      },
      "geometry": {
        "type": "Polygon",
        "coordinates": [
          [
            [
              144.99631724681382,
              -37.794259649056066
            ],
            [
              144.99632288108495,
              -37.794260200265654
            ],
            [
              144.99632114453678,
              -37.7942713778423
            ],
            [
              144.9963155102648,
              -37.79427082663261
            ],
            [
              144.99631724681382,
              -37.794259649056066
            ]
          ]
        ]
      }
    },
    {
      "type": "Feature",
      "properties": {
        "name": "House 20 hip 5 strip 7",
        "height": 3.94
      },
      "geometry": {
        "type": "Polygon",
        "coordinates": [
          [
            [
              144.99631681267664,
              -37.79426244345021
            ],
            [
              144.99632244694794,
              -37.794262994659825
            ],
            [
              144.99632157867384,
              -37.79426858344815
            ],
            [
              144.9963159444021,
              -37.794268032238485
            ],
            [
              144.99631681267664,
              -37.79426244345021
            ]
          ]
        ]
      }
    },
    {
      "type": "Feature",
      "properties": {
        "name": "House 20 hip 5 strip 8",
        "height": 3.96
      },
      "geometry": {
        "type": "Polygon",
        "coordinates": [
          [
            [
              144.99631644800135,
              -37.79426479074128
            ],
            [
              144.99632208227285,
              -37.794265341950926
            ],
            [
              144.99632194334902,
              -37.79426623615705
            ],
            [
              144.99631630907743,
              -37.794265684947405
            ],
            [
              144.99631644800135,
              -37.79426479074128
            ]
          ]
        ]
      }
    },
    {
      "type": "Feature",
      "properties": {
        "name": "House 18 veranda strip 4",
        "height": 3.3
      },
      "geometry": {
        "type": "Polygon",
        "coordinates": [
          [
            [
              144.99617740119865,
              -37.7942743363197
            ],
            [
              144.9961816269018,
              -37.79427474973195
            ],
            [
              144.99617468061888,
              -37.79431946002726
            ],
            [
              144.99617045491323,
              -37.7943190466147
            ],
            [
              144.99617740119865,
              -37.7942743363197
            ]
          ]
        ]
      }
    },
    {
      "type": "Feature",
      "properties": {
        "name": "House 18 veranda strip 3",
        "height": 3.2
      },
      "geometry": {
        "type": "Polygon",
        "coordinates": [
          [
            [
              144.99617317549556,
              -37.794273922907315
            ],
            [
              144.99617740119865,
              -37.7942743363197
            ],
            [
              144.99617045491323,
              -37.7943190466147
            ],
            [
              144.99616622920763,
              -37.794318633201996
            ],
            [
              144.99617317549556,
              -37.794273922907315
            ]
          ]
        ]
      }
    },
    {
      "type": "Feature",
      "properties": {
        "name": "House 18 veranda strip 2",
        "height": 3.1
      },
      "geometry": {
        "type": "Polygon",
        "coordinates": [
          [
            [
              144.99616894979252,
              -37.79427350949478
            ],
            [
              144.99617317549556,
              -37.794273922907315
            ],
            [
              144.99616622920763,
              -37.794318633201996
            ],
            [
              144.9961620035021,
              -37.79431821978913
            ],
            [
              144.99616894979252,
              -37.79427350949478
            ]
          ]
        ]
      }
    },
    {
      "type": "Feature",
      "properties": {
        "name": "House 18 veranda strip 1",
        "height": 3.0
      },
      "geometry": {
        "type": "Polygon",
        "coordinates": [
          [
            [
              144.99616472408948,
              -37.794273096082094
            ],
            [
              144.99616894979252,
              -37.79427350949478
            ],
            [
              144.9961620035021,
              -37.79431821978913
            ],
            [
              144.9961577777966,
              -37.79431780637613
            ],
            [
              144.99616472408948,
              -37.794273096082094
            ]
          ]
        ]
      }
    },
    {
      "type": "Feature",
      "properties": {
        "name": "House 18 main body",
        "height": 3.8
      },
      "geometry": {
        "type": "Polygon",
        "coordinates": [
          [
            [
              144.9961816269018,
              -37.79427474973195
            ],
            [
              144.99631853971334,
              -37.79428814420716
            ],
            [
              144.99631159351097,
              -37.79433285451277
            ],
            [
              144.99617468061888,
              -37.79431946002726
            ],
            [
              144.9961816269018,
              -37.79427474973195
            ]
          ]
        ]
      }
    },
    {
      "type": "Feature",
      "properties": {
        "name": "House 18 north wall",
        "height": 4.4
      },
      "geometry": {
        "type": "Polygon",
        "coordinates": [
          [
            [
              144.9961816269018,
              -37.79427474973195
            ],
            [
              144.99631853971334,
              -37.79428814420716
            ],
            [
              144.9963183313274,
              -37.79428948551634
            ],
            [
              144.99618141851346,
              -37.79427609104082
            ],
            [
              144.9961816269018,
              -37.79427474973195
            ]
          ]
        ]
      }
    },
    {
      "type": "Feature",
      "properties": {
        "name": "House 18 south wall",
        "height": 4.4
      },
      "geometry": {
        "type": "Polygon",
        "coordinates": [
          [
            [
              144.99617502793325,
              -37.79431722451251
            ],
            [
              144.9963119408213,
              -37.794330618997506
            ],
            [
              144.99631159351097,
              -37.79433285451277
            ],
            [
              144.99617468061888,
              -37.79431946002726
            ],
            [
              144.99617502793325,
              -37.79431722451251
            ]
          ]
        ]
      }
    },
    {
      "type": "Feature",
      "properties": {
        "name": "House 18 gable strip 1",
        "height": 4.0
      },
      "geometry": {
        "type": "Polygon",
        "coordinates": [
          [
            [
              144.99618119275942,
              -37.79427754412543
            ],
            [
              144.99628993420993,
              -37.79428818254919
            ],
            [
              144.99628385626835,
              -37.794327304064744
            ],
            [
              144.99617511476185,
              -37.79431666563383
            ],
            [
              144.99618119275942,
              -37.79427754412543
            ]
          ]
        ]
      }
    },
    {
      "type": "Feature",
      "properties": {
        "name": "House 18 gable strip 2",
        "height": 4.2
      },
      "geometry": {
        "type": "Polygon",
        "coordinates": [
          [
            [
              144.99618075861696,
              -37.79428033851892
            ],
            [
              144.9962895000715,
              -37.79429097694318
            ],
            [
              144.99628429040726,
              -37.794324509670794
            ],
            [
              144.99617554890477,
              -37.794313871240405
            ],
            [
              144.99618075861696,
              -37.79428033851892
            ]
          ]
        ]
      }
    },
    {
      "type": "Feature",
      "properties": {
        "name": "House 18 gable strip 3",
        "height": 4.4
      },
      "geometry": {
        "type": "Polygon",
        "coordinates": [
          [
            [
              144.9961803244745,
              -37.79428313291239
            ],
            [
              144.99628906593298,
              -37.794293771337166
            ],
            [
              144.99628472454617,
              -37.79432171527685
            ],
            [
              144.99617598304766,
              -37.79431107684696
            ],
            [
              144.9961803244745,
              -37.79428313291239
            ]
          ]
        ]
      }
    },
    {
      "type": "Feature",
      "properties": {
        "name": "House 18 gable strip 4",
        "height": 4.6
      },
      "geometry": {
        "type": "Polygon",
        "coordinates": [
          [
            [
              144.99617989033197,
              -37.79428592730587
            ],
            [
              144.99628863179447,
              -37.794296565731166
            ],
            [
              144.996285158685,
              -37.7943189208829
            ],
            [
              144.99617641719053,
              -37.79430828245352
            ],
            [
              144.99617989033197,
              -37.79428592730587
            ]
          ]
        ]
      }
    },
    {
      "type": "Feature",
      "properties": {
        "name": "House 18 gable strip 5",
        "height": 4.800000000000001
      },
      "geometry": {
        "type": "Polygon",
        "coordinates": [
          [
            [
              144.99617945618942,
              -37.79428872169933
            ],
            [
              144.99628819765596,
              -37.79429936012513
            ],
            [
              144.99628559282382,
              -37.79431612648895
            ],
            [
              144.99617685133333,
              -37.79430548806008
            ],
            [
              144.99617945618942,
              -37.79428872169933
            ]
          ]
        ]
      }
    },
    {
      "type": "Feature",
      "properties": {
        "name": "House 18 gable strip 6",
        "height": 5.0
      },
      "geometry": {
        "type": "Polygon",
        "coordinates": [
          [
            [
              144.99617902204685,
              -37.794291516092805
            ],
            [
              144.99628776351736,
              -37.79430215451912
            ],
            [
              144.99628602696262,
              -37.794313332094994
            ],
            [
              144.99617728547608,
              -37.79430269366663
            ],
            [
              144.99617902204685,
              -37.794291516092805
            ]
          ]
        ]
      }
    },
    {
      "type": "Feature",
      "properties": {
        "name": "House 18 gable strip 7",
        "height": 5.2
      },
      "geometry": {
        "type": "Polygon",
        "coordinates": [
          [
            [
              144.9961785879042,
              -37.79429431048628
            ],
            [
              144.9962873293787,
              -37.79430494891309
            ],
            [
              144.99628646110136,
              -37.79431053770102
            ],
            [
              144.99617771961883,
              -37.794299899273184
            ],
            [
              144.9961785879042,
              -37.79429431048628
            ]
          ]
        ]
      }
    },
    {
      "type": "Feature",
      "properties": {
        "name": "House 18 gable strip 8",
        "height": 5.4
      },
      "geometry": {
        "type": "Polygon",
        "coordinates": [
          [
            [
              144.99617822322438,
              -37.794296657776776
            ],
            [
              144.99628696470225,
              -37.79430729620402
            ],
            [
              144.99628682577784,
              -37.794308190410085
            ],
            [
              144.99617808429872,
              -37.79429755198268
            ],
            [
              144.99617822322438,
              -37.794296657776776
            ]
          ]
        ]
      }
    },
    {
      "type": "Feature",
      "properties": {
        "name": "House 18 hip 1 strip 1",
        "height": 3.98
      },
      "geometry": {
        "type": "Polygon",
        "coordinates": [
          [
            [
              144.99628993420993,
              -37.79428818254919
            ],
            [
              144.99629556848294,
              -37.794288733760155
            ],
            [
              144.99628949054429,
              -37.79432785527608
            ],
            [
              144.99628385626835,
              -37.794327304064744
            ],
            [
              144.99628993420993,
              -37.79428818254919
            ]
          ]
        ]
      }
    },
    {
      "type": "Feature",
      "properties": {
        "name": "House 18 hip 1 strip 2",
        "height": 4.16
      },
      "geometry": {
        "type": "Polygon",
        "coordinates": [
          [
            [
              144.9962895000715,
              -37.79429097694318
            ],
            [
              144.9962951343447,
              -37.794291528154154
            ],
            [
              144.996289924683,
              -37.79432506088211
            ],
            [
              144.99628429040726,
              -37.794324509670794
            ],
            [
              144.9962895000715,
              -37.79429097694318
            ]
          ]
        ]
      }
    },
    {
      "type": "Feature",
      "properties": {
        "name": "House 18 hip 1 strip 3",
        "height": 4.34
      },
      "geometry": {
        "type": "Polygon",
        "coordinates": [
          [
            [
              144.99628906593298,
              -37.794293771337166
            ],
            [
              144.99629470020642,
              -37.79429432254818
            ],
            [
              144.99629035882165,
              -37.79432226648812
            ],
            [
              144.99628472454617,
              -37.79432171527685
            ],
            [
              144.99628906593298,
              -37.794293771337166
            ]
          ]
        ]
      }
    },
    {
      "type": "Feature",
      "properties": {
        "name": "House 18 hip 1 strip 4",
        "height": 4.52
      },
      "geometry": {
        "type": "Polygon",
        "coordinates": [
          [
            [
              144.99628863179447,
              -37.794296565731166
            ],
            [
              144.99629426606813,
              -37.79429711694219
            ],
            [
              144.9962907929603,
              -37.794319472094145
            ],
            [
              144.996285158685,
              -37.7943189208829
            ],
            [
              144.99628863179447,
              -37.794296565731166
            ]
          ]
        ]
      }
    },
    {
      "type": "Feature",
      "properties": {
        "name": "House 18 hip 1 strip 5",
        "height": 4.7
      },
      "geometry": {
        "type": "Polygon",
        "coordinates": [
          [
            [
              144.99628819765596,
              -37.79429936012513
            ],
            [
              144.9962938319298,
              -37.79429991133621
            ],
            [
              144.9962912270989,
              -37.79431667770016
            ],
            [
              144.99628559282382,
              -37.79431612648895
            ],
            [
              144.99628819765596,
              -37.79429936012513
            ]
          ]
        ]
      }
    },
    {
      "type": "Feature",
      "properties": {
        "name": "House 18 hip 1 strip 6",
        "height": 4.88
      },
      "geometry": {
        "type": "Polygon",
        "coordinates": [
          [
            [
              144.99628776351736,
              -37.79430215451912
            ],
            [
              144.9962933977914,
              -37.794302705730225
            ],
            [
              144.9962916612375,
              -37.79431388330618
            ],
            [
              144.99628602696262,
              -37.794313332094994
            ],
            [
              144.99628776351736,
              -37.79430215451912
            ]
          ]
        ]
      }
    },
    {
      "type": "Feature",
      "properties": {
        "name": "House 18 hip 1 strip 7",
        "height": 5.0600000000000005
      },
      "geometry": {
        "type": "Polygon",
        "coordinates": [
          [
            [
              144.9962873293787,
              -37.79430494891309
            ],
            [
              144.99629296365296,
              -37.79430550012421
            ],
            [
              144.99629209537602,
              -37.79431108891219
            ],
            [
              144.99628646110136,
              -37.79431053770102
            ],
            [
              144.9962873293787,
              -37.79430494891309
            ]
          ]
        ]
      }
    },
    {
      "type": "Feature",
      "properties": {
        "name": "House 18 hip 1 strip 8",
        "height": 5.24
      },
      "geometry": {
        "type": "Polygon",
        "coordinates": [
          [
            [
              144.99628696470225,
              -37.79430729620402
            ],
            [
              144.99629259897668,
              -37.79430784741516
            ],
            [
              144.99629246005236,
              -37.79430874162124
            ],
            [
              144.99628682577784,
              -37.794308190410085
            ],
            [
              144.99628696470225,
              -37.79430729620402
            ]
          ]
        ]
      }
    },
    {
      "type": "Feature",
      "properties": {
        "name": "House 18 hip 2 strip 1",
        "height": 3.94
      },
      "geometry": {
        "type": "Polygon",
        "coordinates": [
          [
            [
              144.99629556848294,
              -37.794288733760155
            ],
            [
              144.99630120275606,
              -37.79428928497084
            ],
            [
              144.99629512482028,
              -37.79432840648713
            ],
            [
              144.99628949054429,
              -37.79432785527608
            ],
            [
              144.99629556848294,
              -37.794288733760155
            ]
          ]
        ]
      }
    },
    {
      "type": "Feature",
      "properties": {
        "name": "House 18 hip 2 strip 2",
        "height": 4.08
      },
      "geometry": {
        "type": "Polygon",
        "coordinates": [
          [
            [
              144.9962951343447,
              -37.794291528154154
            ],
            [
              144.99630076861803,
              -37.79429207936488
            ],
            [
              144.9962955589588,
              -37.794325612093125
            ],
            [
              144.996289924683,
              -37.79432506088211
            ],
            [
              144.9962951343447,
              -37.794291528154154
            ]
          ]
        ]
      }
    },
    {
      "type": "Feature",
      "properties": {
        "name": "House 18 hip 2 strip 3",
        "height": 4.22
      },
      "geometry": {
        "type": "Polygon",
        "coordinates": [
          [
            [
              144.99629470020642,
              -37.79429432254818
            ],
            [
              144.99630033447997,
              -37.79429487375892
            ],
            [
              144.99629599309728,
              -37.79432281769913
            ],
            [
              144.99629035882165,
              -37.79432226648812
            ],
            [
              144.99629470020642,
              -37.79429432254818
            ]
          ]
        ]
      }
    },
    {
      "type": "Feature",
      "properties": {
        "name": "House 18 hip 2 strip 4",
        "height": 4.359999999999999
      },
      "geometry": {
        "type": "Polygon",
        "coordinates": [
          [
            [
              144.99629426606813,
              -37.79429711694219
            ],
            [
              144.99629990034185,
              -37.794297668152964
            ],
            [
              144.9962964272357,
              -37.79432002330513
            ],
            [
              144.9962907929603,
              -37.794319472094145
            ],
            [
              144.99629426606813,
              -37.79429711694219
            ]
          ]
        ]
      }
    },
    {
      "type": "Feature",
      "properties": {
        "name": "House 18 hip 2 strip 5",
        "height": 4.5
      },
      "geometry": {
        "type": "Polygon",
        "coordinates": [
          [
            [
              144.9962938319298,
              -37.79429991133621
            ],
            [
              144.99629946620374,
              -37.794300462546985
            ],
            [
              144.9962968613741,
              -37.794317228911126
            ],
            [
              144.9962912270989,
              -37.79431667770016
            ],
            [
              144.9962938319298,
              -37.79429991133621
            ]
          ]
        ]
      }
    },
    {
      "type": "Feature",
      "properties": {
        "name": "House 18 hip 2 strip 6",
        "height": 4.64
      },
      "geometry": {
        "type": "Polygon",
        "coordinates": [
          [
            [
              144.9962933977914,
              -37.794302705730225
            ],
            [
              144.99629903206554,
              -37.79430325694103
            ],
            [
              144.99629729551245,
              -37.794314434517105
            ],
            [
              144.9962916612375,
              -37.79431388330618
            ],
            [
              144.9962933977914,
              -37.794302705730225
            ]
          ]
        ]
      }
    },
    {
      "type": "Feature",
      "properties": {
        "name": "House 18 hip 2 strip 7",
        "height": 4.78
      },
      "geometry": {
        "type": "Polygon",
        "coordinates": [
          [
            [
              144.99629296365296,
              -37.79430550012421
            ],
            [
              144.99629859792734,
              -37.79430605133505
            ],
            [
              144.9962977296508,
              -37.79431164012308
            ],
            [
              144.99629209537602,
              -37.79431108891219
            ],
            [
              144.99629296365296,
              -37.79430550012421
            ]
          ]
        ]
      }
    },
    {
      "type": "Feature",
      "properties": {
        "name": "House 18 hip 2 strip 8",
        "height": 4.92
      },
      "geometry": {
        "type": "Polygon",
        "coordinates": [
          [
            [
              144.99629259897668,
              -37.79430784741516
            ],
            [
              144.9962982332512,
              -37.79430839862602
            ],
            [
              144.99629809432696,
              -37.79430929283212
            ],
            [
              144.99629246005236,
              -37.79430874162124
            ],
            [
              144.99629259897668,
              -37.79430784741516
            ]
          ]
        ]
      }
    },
    {
      "type": "Feature",
      "properties": {
        "name": "House 18 hip 3 strip 1",
        "height": 3.9
      },
      "geometry": {
        "type": "Polygon",
        "coordinates": [
          [
            [
              144.99630120275606,
              -37.79428928497084
            ],
            [
              144.99630683702927,
              -37.79428983618124
            ],
            [
              144.99630075909639,
              -37.794328957697914
            ],
            [
              144.99629512482028,
              -37.79432840648713
            ],
            [
              144.99630120275606,
              -37.79428928497084
            ]
          ]
        ]
      }
    },
    {
      "type": "Feature",
      "properties": {
        "name": "House 18 hip 3 strip 2",
        "height": 4.0
      },
      "geometry": {
        "type": "Polygon",
        "coordinates": [
          [
            [
              144.99630076861803,
              -37.79429207936488
            ],
            [
              144.99630640289143,
              -37.79429263057531
            ],
            [
              144.9963011932347,
              -37.794326163303886
            ],
            [
              144.9962955589588,
              -37.794325612093125
            ],
            [
              144.99630076861803,
              -37.79429207936488
            ]
          ]
        ]
      }
    },
    {
      "type": "Feature",
      "properties": {
        "name": "House 18 hip 3 strip 3",
        "height": 4.1
      },
      "geometry": {
        "type": "Polygon",
        "coordinates": [
          [
            [
              144.99630033447997,
              -37.79429487375892
            ],
            [
              144.99630596875357,
              -37.79429542496939
            ],
            [
              144.996301627373,
              -37.79432336890985
            ],
            [
              144.99629599309728,
              -37.79432281769913
            ],
            [
              144.99630033447997,
              -37.79429487375892
            ]
          ]
        ]
      }
    },
    {
      "type": "Feature",
      "properties": {
        "name": "House 18 hip 3 strip 4",
        "height": 4.199999999999999
      },
      "geometry": {
        "type": "Polygon",
        "coordinates": [
          [
            [
              144.99629990034185,
              -37.794297668152964
            ],
            [
              144.99630553461571,
              -37.794298219363455
            ],
            [
              144.9963020615112,
              -37.79432057451583
            ],
            [
              144.9962964272357,
              -37.79432002330513
            ],
            [
              144.99629990034185,
              -37.794297668152964
            ]
          ]
        ]
      }
    },
    {
      "type": "Feature",
      "properties": {
        "name": "House 18 hip 3 strip 5",
        "height": 4.3
      },
      "geometry": {
        "type": "Polygon",
        "coordinates": [
          [
            [
              144.99629946620374,
              -37.794300462546985
            ],
            [
              144.99630510047774,
              -37.79430101375751
            ],
            [
              144.9963024956494,
              -37.79431778012179
            ],
            [
              144.9962968613741,
              -37.794317228911126
            ],
            [
              144.99629946620374,
              -37.794300462546985
            ]
          ]
        ]
      }
    },
    {
      "type": "Feature",
      "properties": {
        "name": "House 18 hip 3 strip 6",
        "height": 4.3999999999999995
      },
      "geometry": {
        "type": "Polygon",
        "coordinates": [
          [
            [
              144.99629903206554,
              -37.79430325694103
            ],
            [
              144.9963046663398,
              -37.794303808151575
            ],
            [
              144.99630292978756,
              -37.79431498572776
            ],
            [
              144.99629729551245,
              -37.794314434517105
            ],
            [
              144.99629903206554,
              -37.79430325694103
            ]
          ]
        ]
      }
    },
    {
      "type": "Feature",
      "properties": {
        "name": "House 18 hip 3 strip 7",
        "height": 4.5
      },
      "geometry": {
        "type": "Polygon",
        "coordinates": [
          [
            [
              144.99629859792734,
              -37.79430605133505
            ],
            [
              144.9963042322018,
              -37.79430660254562
            ],
            [
              144.99630336392565,
              -37.79431219133371
            ],
            [
              144.9962977296508,
              -37.79431164012308
            ],
            [
              144.99629859792734,
              -37.79430605133505
            ]
          ]
        ]
      }
    },
    {
      "type": "Feature",
      "properties": {
        "name": "House 18 hip 3 strip 8",
        "height": 4.6
      },
      "geometry": {
        "type": "Polygon",
        "coordinates": [
          [
            [
              144.9962982332512,
              -37.79430839862602
            ],
            [
              144.99630386752582,
              -37.79430894983662
            ],
            [
              144.99630372860165,
              -37.79430984404273
            ],
            [
              144.99629809432696,
              -37.79430929283212
            ],
            [
              144.9962982332512,
              -37.79430839862602
            ]
          ]
        ]
      }
    },
    {
      "type": "Feature",
      "properties": {
        "name": "House 18 hip 4 strip 1",
        "height": 3.86
      },
      "geometry": {
        "type": "Polygon",
        "coordinates": [
          [
            [
              144.99630683702927,
              -37.79428983618124
            ],
            [
              144.99631247130256,
              -37.79429038739139
            ],
            [
              144.9963063933726,
              -37.79432950890844
            ],
            [
              144.99630075909639,
              -37.794328957697914
            ],
            [
              144.99630683702927,
              -37.79428983618124
            ]
          ]
        ]
      }
    },
    {
      "type": "Feature",
      "properties": {
        "name": "House 18 hip 4 strip 2",
        "height": 3.92
      },
      "geometry": {
        "type": "Polygon",
        "coordinates": [
          [
            [
              144.99630640289143,
              -37.79429263057531
            ],
            [
              144.99631203716496,
              -37.79429318178549
            ],
            [
              144.9963068275107,
              -37.79432671451439
            ],
            [
              144.9963011932347,
              -37.794326163303886
            ],
            [
              144.99630640289143,
              -37.79429263057531
            ]
          ]
        ]
      }
    },
    {
      "type": "Feature",
      "properties": {
        "name": "House 18 hip 4 strip 3",
        "height": 3.98
      },
      "geometry": {
        "type": "Polygon",
        "coordinates": [
          [
            [
              144.99630596875357,
              -37.79429542496939
            ],
            [
              144.9963116030273,
              -37.7942959761796
            ],
            [
              144.99630726164875,
              -37.79432392012034
            ],
            [
              144.996301627373,
              -37.79432336890985
            ],
            [
              144.99630596875357,
              -37.79429542496939
            ]
          ]
        ]
      }
    },
    {
      "type": "Feature",
      "properties": {
        "name": "House 18 hip 4 strip 4",
        "height": 4.04
      },
      "geometry": {
        "type": "Polygon",
        "coordinates": [
          [
            [
              144.99630553461571,
              -37.794298219363455
            ],
            [
              144.99631116888963,
              -37.79429877057369
            ],
            [
              144.99630769578678,
              -37.79432112572626
            ],
            [
              144.9963020615112,
              -37.79432057451583
            ],
            [
              144.99630553461571,
              -37.794298219363455
            ]
          ]
        ]
      }
    },
    {
      "type": "Feature",
      "properties": {
        "name": "House 18 hip 4 strip 5",
        "height": 4.1
      },
      "geometry": {
        "type": "Polygon",
        "coordinates": [
          [
            [
              144.99630510047774,
              -37.79430101375751
            ],
            [
              144.9963107347519,
              -37.79430156496778
            ],
            [
              144.99630812992476,
              -37.79431833133221
            ],
            [
              144.9963024956494,
              -37.79431778012179
            ],
            [
              144.99630510047774,
              -37.79430101375751
            ]
          ]
        ]
      }
    },
    {
      "type": "Feature",
      "properties": {
        "name": "House 18 hip 4 strip 6",
        "height": 4.16
      },
      "geometry": {
        "type": "Polygon",
        "coordinates": [
          [
            [
              144.9963046663398,
              -37.794303808151575
            ],
            [
              144.99631030061414,
              -37.79430435936185
            ],
            [
              144.99630856406273,
              -37.79431553693815
            ],
            [
              144.99630292978756,
              -37.79431498572776
            ],
            [
              144.9963046663398,
              -37.794303808151575
            ]
          ]
        ]
      }
    },
    {
      "type": "Feature",
      "properties": {
        "name": "House 18 hip 4 strip 7",
        "height": 4.220000000000001
      },
      "geometry": {
        "type": "Polygon",
        "coordinates": [
          [
            [
              144.9963042322018,
              -37.79430660254562
            ],
            [
              144.99630986647634,
              -37.794307153755945
            ],
            [
              144.99630899820062,
              -37.79431274254407
            ],
            [
              144.99630336392565,
              -37.79431219133371
            ],
            [
              144.9963042322018,
              -37.79430660254562
            ]
          ]
        ]
      }
    },
    {
      "type": "Feature",
      "properties": {
        "name": "House 18 hip 4 strip 8",
        "height": 4.28
      },
      "geometry": {
        "type": "Polygon",
        "coordinates": [
          [
            [
              144.99630386752582,
              -37.79430894983662
            ],
            [
              144.99630950180057,
              -37.79430950104696
            ],
            [
              144.99630936287645,
              -37.79431039525306
            ],
            [
              144.99630372860165,
              -37.79430984404273
            ],
            [
              144.99630386752582,
              -37.79430894983662
            ]
          ]
        ]
      }
    },
    {
      "type": "Feature",
      "properties": {
        "name": "House 18 hip 5 strip 1",
        "height": 3.82
      },
      "geometry": {
        "type": "Polygon",
        "coordinates": [
          [
            [
              144.99631247130256,
              -37.79429038739139
            ],
            [
              144.99631810557597,
              -37.79429093860127
            ],
            [
              144.9963120276489,
              -37.79433006011868
            ],
            [
              144.9963063933726,
              -37.79432950890844
            ],
            [
              144.99631247130256,
              -37.79429038739139
            ]
          ]
        ]
      }
    },
    {
      "type": "Feature",
      "properties": {
        "name": "House 18 hip 5 strip 2",
        "height": 3.84
      },
      "geometry": {
        "type": "Polygon",
        "coordinates": [
          [
            [
              144.99631203716496,
              -37.79429318178549
            ],
            [
              144.99631767143856,
              -37.7942937329954
            ],
            [
              144.9963124617868,
              -37.79432726572461
            ],
            [
              144.9963068275107,
              -37.79432671451439
            ],
            [
              144.99631203716496,
              -37.79429318178549
            ]
          ]
        ]
      }
    },
    {
      "type": "Feature",
      "properties": {
        "name": "House 18 hip 5 strip 3",
        "height": 3.86
      },
      "geometry": {
        "type": "Polygon",
        "coordinates": [
          [
            [
              144.9963116030273,
              -37.7942959761796
            ],
            [
              144.99631723730113,
              -37.79429652738953
            ],
            [
              144.99631289592466,
              -37.794324471330526
            ],
            [
              144.99630726164875,
              -37.79432392012034
            ],
            [
              144.9963116030273,
              -37.7942959761796
            ]
          ]
        ]
      }
    },
    {
      "type": "Feature",
      "properties": {
        "name": "House 18 hip 5 strip 4",
        "height": 3.88
      },
      "geometry": {
        "type": "Polygon",
        "coordinates": [
          [
            [
              144.99631116888963,
              -37.79429877057369
            ],
            [
              144.99631680316364,
              -37.79429932178365
            ],
            [
              144.99631333006246,
              -37.79432167693644
            ],
            [
              144.99630769578678,
              -37.79432112572626
            ],
            [
              144.99631116888963,
              -37.79429877057369
            ]
          ]
        ]
      }
    },
    {
      "type": "Feature",
      "properties": {
        "name": "House 18 hip 5 strip 5",
        "height": 3.9
      },
      "geometry": {
        "type": "Polygon",
        "coordinates": [
          [
            [
              144.9963107347519,
              -37.79430156496778
            ],
            [
              144.99631636902612,
              -37.794302116177754
            ],
            [
              144.99631376420024,
              -37.79431888254236
            ],
            [
              144.99630812992476,
              -37.79431833133221
            ],
            [
              144.9963107347519,
              -37.79430156496778
            ]
          ]
        ]
      }
    },
    {
      "type": "Feature",
      "properties": {
        "name": "House 18 hip 5 strip 6",
        "height": 3.92
      },
      "geometry": {
        "type": "Polygon",
        "coordinates": [
          [
            [
              144.99631030061414,
              -37.79430435936185
            ],
            [
              144.99631593488857,
              -37.79430491057187
            ],
            [
              144.99631419833798,
              -37.794316088148264
            ],
            [
              144.99630856406273,
              -37.79431553693815
            ],
            [
              144.99631030061414,
              -37.79430435936185
            ]
          ]
        ]
      }
    },
    {
      "type": "Feature",
      "properties": {
        "name": "House 18 hip 5 strip 7",
        "height": 3.94
      },
      "geometry": {
        "type": "Polygon",
        "coordinates": [
          [
            [
              144.99630986647634,
              -37.794307153755945
            ],
            [
              144.99631550075097,
              -37.79430770496597
            ],
            [
              144.99631463247567,
              -37.79431329375417
            ],
            [
              144.99630899820062,
              -37.79431274254407
            ],
            [
              144.99630986647634,
              -37.794307153755945
            ]
          ]
        ]
      }
    },
    {
      "type": "Feature",
      "properties": {
        "name": "House 18 hip 5 strip 8",
        "height": 3.96
      },
      "geometry": {
        "type": "Polygon",
        "coordinates": [
          [
            [
              144.99630950180057,
              -37.79430950104696
            ],
            [
              144.99631513607537,
              -37.79431005225702
            ],
            [
              144.99631499715133,
              -37.794310946463135
            ],
            [
              144.99630936287645,
              -37.79431039525306
            ],
            [
              144.99630950180057,
              -37.79430950104696
            ]
          ]
        ]
      }
    }
  ]
}